{
"type": "FeatureCollection",
"name": "frontiere",
"crs": { "type": "name", "properties": { "name": "urn:ogc:def:crs:OGC:1.3:CRS84" } },
"features": [
{ "type": "Feature", "properties": { "id": 1 }, "geometry": { "type": "LineString", "coordinates": [ [ 10.077415843383054, -9.376931511294877 ], [ 9.842234335708524, -9.000641893931762 ], [ 9.627006147684281, -8.523649693445602 ], [ 9.624505166476027, -8.518106978335419 ], [ 9.571356269983928, -8.29791869286815 ], [ 9.500929151506234, -8.006149202031985 ], [ 9.542121156496165, -7.358846266475915 ], [ 9.730427465021567, -6.876311350879573 ], [ 9.830785794239837, -6.764802096192605 ], [ 9.942272062112645, -6.64092846522282 ], [ 10.036425216375346, -6.346699858151879 ], [ 10.30711553488061, -5.717050639020067 ], [ 10.495421843406014, -5.399283743383451 ], [ 11.013264191850869, -4.887325967080014 ], [ 11.845931149861631, -4.509242206993856 ], [ 12.203418907452823, -4.400377622377608 ], [ 12.599156383963239, -4.320935898468454 ], [ 12.96694214280191, -4.257676747948201 ], [ 13.608360506216561, -4.298868752938133 ], [ 13.959362890173297, -4.274493587385582 ], [ 14.032049700398716, -4.269445892231039 ], [ 14.036728173372163, -4.267711177533019 ], [ 14.555776620984989, -4.075255011564218 ], [ 14.938273810177211, -3.828102981624628 ], [ 15.303117282945179, -3.657450389523483 ], [ 15.785652198541522, -3.475028653139499 ], [ 16.315263691269216, -3.398529215301055 ], [ 17.00375863181522, -3.416182931725311 ], [ 17.421563253855957, -3.492682369563756 ], [ 17.815829587331017, -3.592720095967875 ], [ 17.904098169452297, -3.72218068307909 ], [ 17.896212793417597, -3.840461323599621 ], [ 17.89232902516946, -3.898717847321654 ], [ 17.988717436968528, -4.082094640820486 ] ] } },
{ "type": "Feature", "properties": { "id": 2 }, "geometry": { "type": "LineString", "coordinates": [ [ 12.96694214280191, -4.257676747948201 ], [ 13.002249575650424, -3.845756698048884 ], [ 13.1199410184788, -3.46914408099808 ], [ 13.188843250730256, -3.34610438054905 ], [ 13.284709038438526, -3.17491547392714 ], [ 13.631898794782236, -2.780649140452079 ], [ 14.020280556115878, -2.598227404068096 ], [ 14.379239456742425, -2.474651389098301 ], [ 15.208964128682478, -2.286345080572899 ], [ 16.138726527026652, -2.098038772047497 ], [ 16.833106039714075, -1.98623190136054 ], [ 17.345063816017511, -1.874425030673582 ], [ 17.360483358624446, -1.868936718898232 ], [ 17.692253572361221, -1.750849015703787 ], [ 17.957059318725069, -1.556658135036966 ], [ 18.180673060098982, -1.321275249380214 ], [ 18.433709662179993, -0.979970065177923 ], [ 18.616131398563976, -0.585703731702862 ], [ 18.769130274240865, -0.232629403217733 ], [ 18.777996134470051, -0.173338962935051 ], [ 18.816914637113531, 0.08692852349322 ], [ 18.863283428503564, 0.39701981591408 ], [ 18.939782866342011, 0.808939865813397 ], [ 18.953728421613665, 1.056473471885264 ], [ 18.954191460890055, 1.064692419041176 ], [ 18.963321154907685, 1.226744487854133 ], [ 18.969205727049104, 1.691625687026219 ], [ 19.081012597736063, 2.150622314056886 ], [ 19.20217994053661, 2.473735228191676 ], [ 19.275203478402887, 2.668464662501742 ], [ 19.332578056781713, 2.842059540673596 ], [ 19.337253928590044, 2.843012033078997 ], [ 19.65034495241833, 2.906789834229203 ], [ 19.820920193410771, 2.891514439513462 ], [ 20.044611285893392, 2.87148240138069 ], [ 20.368262753671427, 2.771444674976571 ], [ 20.690117884864723, 2.641664380140563 ], [ 20.733106226439393, 2.6243303714411 ], [ 21.047059604051526, 2.613117750812096 ], [ 21.107375226151394, 2.610963621451386 ], [ 21.227410286318573, 2.606676655016844 ], [ 21.671016737282233, 2.606676655016844 ], [ 21.868828649733224, 2.606676655016844 ], [ 22.313335842735224, 2.618772088840028 ], [ 22.733860754521793, 2.630214943582519 ], [ 23.151665376562526, 2.612561227158262 ], [ 23.377966779632469, 2.563006666103902 ] ] } },
{ "type": "Feature", "properties": { "id": 3 }, "geometry": { "type": "LineString", "coordinates": [ [ 19.332578056781713, 2.842059540673596 ], [ 19.008926589003682, 2.959750983501973 ], [ 18.579352822680107, 3.106865287037443 ], [ 18.284881424347418, 3.311497953675414 ], [ 18.232163066336398, 3.348132744835614 ], [ 17.92451694600706, 3.628633619253541 ], [ 17.889538569023959, 3.66052566885578 ], [ 17.83201216071992, 3.712976217603581 ], [ 17.461284115810532, 4.107242551078642 ], [ 17.417149824749885, 4.136665411785737 ], [ 17.237448485609299, 4.256466304546128 ], [ 17.028768063416244, 4.395586586008164 ], [ 16.756457431980909, 4.644218032101297 ], [ 16.622732585658348, 4.766314630917551 ], [ 16.607150591474916, 4.775144427621496 ], [ 16.301841324085991, 4.948153012475218 ], [ 16.269658257173219, 4.966390083725789 ], [ 15.587047888768634, 5.116446673331971 ], [ 15.148474592042575, 5.205568519725502 ], [ 15.036840393545974, 5.228253544018929 ], [ 14.648458632212332, 5.295926123645245 ], [ 14.255663441772628, 5.341531557741241 ] ] } },
{ "type": "Feature", "properties": { "id": 4 }, "geometry": { "type": "LineString", "coordinates": [ [ 17.461284115810532, 4.107242551078642 ], [ 17.516135431107426, 4.134232880827907 ], [ 17.83201216071992, 4.289664287462625 ], [ 18.037972185669577, 4.489739740270865 ], [ 18.261585927043491, 4.695699765220523 ], [ 18.526391673407339, 5.131158103685515 ], [ 18.726467126215578, 5.55484729786767 ], [ 18.873581429751049, 5.896152482069961 ], [ 19.026580305427935, 6.107997079161038 ], [ 19.279616907508945, 6.413994830514817 ], [ 19.491461504600021, 6.696454293302919 ], [ 19.703306101691098, 6.802376591848458 ], [ 19.897496982357922, 6.908298890393997 ], [ 20.121110723731835, 7.143681776050749 ], [ 20.332955320822911, 7.43791038312169 ], [ 20.345887310502743, 7.465651586789718 ], [ 20.515377057206894, 7.829234430526041 ], [ 20.512434771136185, 8.029309883334282 ], [ 20.453579427087323, 8.177485788220904 ], [ 20.43114053340841, 8.233978591538261 ] ] } },
{ "type": "Feature", "properties": { "id": 5 }, "geometry": { "type": "LineString", "coordinates": [ [ 14.255663441772628, 5.341531557741241 ], [ 14.108549138237157, 5.112033244225908 ], [ 13.708398232620677, 4.641267472912403 ], [ 13.320016471287037, 4.188155418023155 ], [ 13.273242683627929, 4.127349494066316 ], [ 13.084633585630284, 3.882157666669376 ], [ 12.919865565670555, 3.534967910325666 ], [ 12.790404978559343, 3.293700452527494 ], [ 12.4020232172257, 3.058317566870742 ], [ 12.043064316599153, 2.887664974769597 ], [ 11.938117307010877, 2.86506100347366 ], [ 11.354446836520513, 2.739347363675736 ], [ 11.278069938214708, 2.72289695480987 ], [ 10.972072186860929, 2.699358666244194 ], [ 10.45596470725703, 2.660843182691665 ], [ 10.183539519910809, 2.640512944830006 ], [ 10.00978580695913, 2.635139118656243 ], [ 9.612736022193182, 2.622859228405749 ], [ 9.306738270839405, 2.505167785577374 ], [ 8.936010225930019, 2.258015755637783 ], [ 8.512321031747865, 2.057940302829544 ], [ 8.176900419686993, 1.887287710728398 ], [ 7.823826091201864, 1.746057979334346 ], [ 7.623750638393624, 1.72840426291009 ], [ 7.454211871700494, 1.731864237740562 ], [ 6.758718533605059, 1.746057979334347 ], [ 6.549869098903258, 1.731956366868347 ], [ 6.523514452891019, 1.730176888722889 ], [ 6.402684584942202, 1.722018398973731 ] ] } },
{ "type": "Feature", "properties": { "id": 6 }, "geometry": { "type": "LineString", "coordinates": [ [ 11.965008250770353, 11.168156888169946 ], [ 12.117144922342909, 11.047337264979582 ], [ 12.22548605298314, 10.961297952796208 ], [ 12.463811224710602, 10.622935054664627 ], [ 12.5255992321955, 10.461109320775609 ], [ 12.649175247165292, 10.072727559441967 ], [ 12.654688130956179, 9.899071720029035 ], [ 12.66094439144813, 9.701999514532581 ], [ 12.66094439144813, 9.500338997980727 ], [ 12.66094439144813, 9.178272593946307 ], [ 12.592073037842651, 8.818263245554038 ], [ 12.531483804336915, 8.501546797683144 ], [ 12.443215222215633, 8.124934180632341 ], [ 12.249024341548813, 7.760090707864374 ], [ 12.107794610154762, 7.495284961500528 ], [ 12.42733808311765, 6.829118060238915 ], [ 12.454984366498472, 6.771482588106013 ], [ 12.813697050777332, 6.654792919726144 ], [ 12.943403854236234, 6.612599140287706 ], [ 13.355323904135549, 6.471369408893654 ], [ 13.47171504862969, 6.338350958043208 ], [ 13.643667939065072, 6.141833368974201 ], [ 13.76359934869379, 6.021901959345483 ], [ 13.98347698643145, 5.802024321607822 ], [ 14.079126277530063, 5.706375030509208 ], [ 14.255663441772628, 5.341531557741241 ] ] } },
{ "type": "Feature", "properties": { "id": 7 }, "geometry": { "type": "LineString", "coordinates": [ [ 19.230370115837779, 8.948834131959686 ], [ 19.008926589003686, 9.123840301638179 ], [ 18.820620280478284, 9.535760351537494 ], [ 18.635461789972293, 9.888718724064535 ], [ 18.444007663427477, 10.25367815279059 ], [ 18.173317344922214, 10.630290769841395 ], [ 17.843781305002761, 11.124594829720573 ], [ 17.561321842214657, 11.595360601034077 ], [ 17.278862379426556, 12.160279526610283 ], [ 17.172940080881016, 12.383893267984199 ], [ 17.043479493769802, 12.631045297923787 ], [ 16.796327463830213, 12.878197327863377 ], [ 16.608021155304812, 13.090041924954456 ], [ 16.443253135345085, 13.419577964873907 ], [ 16.325561692516708, 13.819728870490387 ], [ 16.184331961122659, 14.325802074652405 ], [ 16.14902452827415, 15.15552674659245 ], [ 16.14902452827415, 15.525023799918818 ], [ 16.14902452827415, 15.543908507926092 ], [ 16.206250844349103, 15.873121131335822 ] ] } },
{ "type": "Feature", "properties": { "id": 8 }, "geometry": { "type": "LineString", "coordinates": [ [ 15.309177224996727, 16.555270862718359 ], [ 15.063320968182383, 16.364806321654008 ], [ 14.926686523347751, 16.292019748237429 ], [ 14.748496358616478, 16.197096015623572 ], [ 14.363056883353547, 16.079404572795198 ], [ 13.845407120881609, 16.060388867235005 ], [ 13.642196796029742, 16.052923998158814 ], [ 13.20673845756475, 15.958770843896113 ], [ 12.800702979806854, 15.805771968219224 ], [ 12.526334967302065, 15.653345294605453 ], [ 12.482936084170239, 15.62923480397666 ], [ 12.236192533198828, 15.454812638634801 ], [ 12.141630899967948, 15.38796734617849 ], [ 11.853286865038427, 15.129046171956062 ], [ 11.623788551523095, 14.870124997733635 ], [ 11.548790474072993, 14.834382370211307 ], [ 11.493110148923529, 14.807846208354846 ] ] } }
]
}
