{
"type": "FeatureCollection",
"name": "lieux",
"crs": { "type": "name", "properties": { "name": "urn:ogc:def:crs:OGC:1.3:CRS84" } },
"features": [
{ "type": "Feature", "properties": { "id": 1, "type": "City", "name_fr": "Port-Réal" }, "geometry": { "type": "Point", "coordinates": [ 19.078229700576749, 3.953605833573462 ] } },
{ "type": "Feature", "properties": { "id": 2, "type": "Castle", "name_fr": "Fengué" }, "geometry": { "type": "Point", "coordinates": [ 18.802566452963266, 4.487995391976725 ] } },
{ "type": "Feature", "properties": { "id": 3, "type": "Castle", "name_fr": "Rosby" }, "geometry": { "type": "Point", "coordinates": [ 19.986983966014368, 4.621154757349338 ] } },
{ "type": "Feature", "properties": { "id": 4, "type": "Other", "name_fr": "l'auberge du vieux pont de pierre" }, "geometry": { "type": "Point", "coordinates": [ 20.398142708217517, 5.041658016420776 ] } },
{ "type": "Feature", "properties": { "id": 5, "type": "Other", "name_fr": "Bois-Mouchy" }, "geometry": { "type": "Point", "coordinates": [ 18.650718053854106, 5.527572893569968 ] } },
{ "type": "Feature", "properties": { "id": 6, "type": "Castle", "name_fr": "Cornetruie" }, "geometry": { "type": "Point", "coordinates": [ 18.856297424955685, 6.415301996054055 ] } },
{ "type": "Feature", "properties": { "id": 7, "type": "Town", "name_fr": "Chutebourg" }, "geometry": { "type": "Point", "coordinates": [ 16.791159197071647, 2.336420383061373 ] } },
{ "type": "Feature", "properties": { "id": 8, "type": "Ruin", "name_fr": "Noblecœur" }, "geometry": { "type": "Point", "coordinates": [ 14.237769962821377, 8.452406673333286 ] } },
{ "type": "Feature", "properties": { "id": 9, "type": "Town", "name_fr": "Sombreval" }, "geometry": { "type": "Point", "coordinates": [ 20.919099523622627, 5.838278079439363 ] } },
{ "type": "Feature", "properties": { "id": 10, "type": "Castle", "name_fr": "Les Épois" }, "geometry": { "type": "Point", "coordinates": [ 19.60152264519888, 7.314711744623416 ] } },
{ "type": "Feature", "properties": { "id": 11, "type": "Castle", "name_fr": "Castelfoyer" }, "geometry": { "type": "Point", "coordinates": [ 19.592178128330627, 5.072027696242564 ] } },
{ "type": "Feature", "properties": { "id": 12, "type": "Other", "name_fr": null }, "geometry": { "type": "Point", "coordinates": [ 18.508214171613218, 6.268125855379012 ] } },
{ "type": "Feature", "properties": { "id": 13, "type": "Other", "name_fr": null }, "geometry": { "type": "Point", "coordinates": [ 17.629829585997381, 7.006342687971042 ] } },
{ "type": "Feature", "properties": { "id": 14, "type": "Other", "name_fr": null }, "geometry": { "type": "Point", "coordinates": [ 16.807512101591072, 6.464360709612336 ] } },
{ "type": "Feature", "properties": { "id": 15, "type": "Town", "name_fr": "Harrenhal" }, "geometry": { "type": "Point", "coordinates": [ 16.900957270273608, 8.379986667604314 ] } },
{ "type": "Feature", "properties": { "id": 16, "type": "Other", "name_fr": null }, "geometry": { "type": "Point", "coordinates": [ 16.396353359387916, 7.922105341059897 ] } },
{ "type": "Feature", "properties": { "id": 17, "type": "Other", "name_fr": null }, "geometry": { "type": "Point", "coordinates": [ 14.648928705024511, 6.847485901210739 ] } },
{ "type": "Feature", "properties": { "id": 18, "type": "Town", "name_fr": "Pierremoûtier" }, "geometry": { "type": "Point", "coordinates": [ 13.994812524246766, 6.137302619223462 ] } },
{ "type": "Feature", "properties": { "id": 19, "type": "Other", "name_fr": "Gué-Cabot" }, "geometry": { "type": "Point", "coordinates": [ 13.406107961546793, 6.52042781082185 ] } },
{ "type": "Feature", "properties": { "id": 20, "type": "Other", "name_fr": null }, "geometry": { "type": "Point", "coordinates": [ 13.742510568803919, 6.987653654234528 ] } },
{ "type": "Feature", "properties": { "id": 21, "type": "Castle", "name_fr": "La Glandée" }, "geometry": { "type": "Point", "coordinates": [ 14.050879625456288, 8.015550509742418 ] } },
{ "type": "Feature", "properties": { "id": 22, "type": "Castle", "name_fr": "Château-Rosières" }, "geometry": { "type": "Point", "coordinates": [ 12.985604702475385, 7.604391767539262 ] } },
{ "type": "Feature", "properties": { "id": 23, "type": "Other", "name_fr": null }, "geometry": { "type": "Point", "coordinates": [ 12.742647263900793, 7.239955609677374 ] } },
{ "type": "Feature", "properties": { "id": 24, "type": "Other", "name_fr": "Sherrer" }, "geometry": { "type": "Point", "coordinates": [ 12.751991780769046, 7.043720755444049 ] } },
{ "type": "Feature", "properties": { "id": 25, "type": "Other", "name_fr": "Warbourg" }, "geometry": { "type": "Point", "coordinates": [ 12.583790477140482, 7.081098822917063 ] } },
{ "type": "Feature", "properties": { "id": 26, "type": "Other", "name_fr": null }, "geometry": { "type": "Point", "coordinates": [ 14.658273221892761, 8.679011207388427 ] } },
{ "type": "Feature", "properties": { "id": 27, "type": "Other", "name_fr": "Forlane" }, "geometry": { "type": "Point", "coordinates": [ 14.200391895348339, 8.763111859202709 ] } },
{ "type": "Feature", "properties": { "id": 28, "type": "Other", "name_fr": null }, "geometry": { "type": "Point", "coordinates": [ 14.032190591719775, 9.006069297777302 ] } },
{ "type": "Feature", "properties": { "id": 29, "type": "Other", "name_fr": null }, "geometry": { "type": "Point", "coordinates": [ 14.611550637551495, 9.426572556848711 ] } },
{ "type": "Feature", "properties": { "id": 30, "type": "Other", "name_fr": null }, "geometry": { "type": "Point", "coordinates": [ 14.751718390575297, 9.604118377345522 ] } },
{ "type": "Feature", "properties": { "id": 31, "type": "Other", "name_fr": null }, "geometry": { "type": "Point", "coordinates": [ 13.835955737486453, 9.819042265315353 ] } },
{ "type": "Feature", "properties": { "id": 32, "type": "Castle", "name_fr": "Vivesaigues" }, "geometry": { "type": "Point", "coordinates": [ 13.312662792864254, 9.491984174926479 ] } },
{ "type": "Feature", "properties": { "id": 33, "type": "Castle", "name_fr": null }, "geometry": { "type": "Point", "coordinates": [ 15.798304279819691, 8.837867994148738 ] } },
{ "type": "Feature", "properties": { "id": 34, "type": "Castle", "name_fr": "Darry-le-Château" }, "geometry": { "type": "Point", "coordinates": [ 17.377527630554535, 9.370505455639183 ] } },
{ "type": "Feature", "properties": { "id": 35, "type": "Other", "name_fr": "Auberge de l'Homme à genoux" }, "geometry": { "type": "Point", "coordinates": [ 14.873197109862593, 10.276923591859777 ] } },
{ "type": "Feature", "properties": { "id": 36, "type": "Other", "name_fr": null }, "geometry": { "type": "Point", "coordinates": [ 16.013228167789524, 10.361024243674059 ] } },
{ "type": "Feature", "properties": { "id": 37, "type": "Other", "name_fr": null }, "geometry": { "type": "Point", "coordinates": [ 16.882268236537101, 9.725597096632825 ] } },
{ "type": "Feature", "properties": { "id": 38, "type": "Other", "name_fr": "L'auberge du carrefour" }, "geometry": { "type": "Point", "coordinates": [ 17.340149563081521, 9.819042265315353 ] } },
{ "type": "Feature", "properties": { "id": 39, "type": "Other", "name_fr": "Salins" }, "geometry": { "type": "Point", "coordinates": [ 19.181019386127474, 9.09951446645983 ] } },
{ "type": "Feature", "properties": { "id": 40, "type": "Other", "name_fr": "l'île de Repose" }, "geometry": { "type": "Point", "coordinates": [ 19.227741970468738, 8.931313162831273 ] } },
{ "type": "Feature", "properties": { "id": 41, "type": "Castle", "name_fr": "Combemèche" }, "geometry": { "type": "Point", "coordinates": [ 21.63862732247815, 9.090169949591584 ] } },
{ "type": "Feature", "properties": { "id": 42, "type": "Town", "name_fr": "Viergétang" }, "geometry": { "type": "Point", "coordinates": [ 20.171538174162347, 8.230474397712257 ] } },
{ "type": "Feature", "properties": { "id": 43, "type": "Castle", "name_fr": "Repos-des-Freux" }, "geometry": { "type": "Point", "coordinates": [ 22.068475098417807, 7.267989160282141 ] } },
{ "type": "Feature", "properties": { "id": 44, "type": "Castle", "name_fr": "Repaire Patybulayre" }, "geometry": { "type": "Point", "coordinates": [ 23.918689438332009, 9.183615118274119 ] } },
{ "type": "Feature", "properties": { "id": 45, "type": "Ruin", "name_fr": "Les Murmures" }, "geometry": { "type": "Point", "coordinates": [ 24.582150135978008, 8.482776353155103 ] } },
{ "type": "Feature", "properties": { "id": 46, "type": "Castle", "name_fr": "Peyredragon" }, "geometry": { "type": "Point", "coordinates": [ 24.348537214271669, 7.053065272312317 ] } },
{ "type": "Feature", "properties": { "id": 47, "type": "Castle", "name_fr": "Pointe-Vive" }, "geometry": { "type": "Point", "coordinates": [ 23.806555235912967, 5.74483291075682 ] } },
{ "type": "Feature", "properties": { "id": 48, "type": "Castle", "name_fr": "Danse-des-Pierres" }, "geometry": { "type": "Point", "coordinates": [ 24.208369461247866, 4.950548976955268 ] } },
{ "type": "Feature", "properties": { "id": 49, "type": "Castle", "name_fr": "Le Fenil" }, "geometry": { "type": "Point", "coordinates": [ 22.741280312932069, 1.549144836910983 ] } },
{ "type": "Feature", "properties": { "id": 50, "type": "Castle", "name_fr": "Les Bronzes" }, "geometry": { "type": "Point", "coordinates": [ 22.040441547813053, 1.296842881468137 ] } },
{ "type": "Feature", "properties": { "id": 51, "type": "Castle", "name_fr": "Felbois" }, "geometry": { "type": "Point", "coordinates": [ 21.283535681484519, 0.427802812720564 ] } },
{ "type": "Feature", "properties": { "id": 52, "type": "Castle", "name_fr": "Accalmie" }, "geometry": { "type": "Point", "coordinates": [ 22.713246762327309, -0.656161143996854 ] } },
{ "type": "Feature", "properties": { "id": 53, "type": "Castle", "name_fr": "La Griffonnière" }, "geometry": { "type": "Point", "coordinates": [ 21.816173142974968, -1.263554740433328 ] } },
{ "type": "Feature", "properties": { "id": 54, "type": "Castle", "name_fr": "Castelpluie" }, "geometry": { "type": "Point", "coordinates": [ 25.058720496258942, -1.992427056157105 ] } },
{ "type": "Feature", "properties": { "id": 55, "type": "Castle", "name_fr": "Vertepierre" }, "geometry": { "type": "Point", "coordinates": [ 24.797074023947843, -4.0855988346459 ] } },
{ "type": "Feature", "properties": { "id": 56, "type": "Castle", "name_fr": "Tour en Pleurs" }, "geometry": { "type": "Point", "coordinates": [ 22.872103549087615, -4.590202745531592 ] } },
{ "type": "Feature", "properties": { "id": 57, "type": "Castle", "name_fr": "Bosquebrume" }, "geometry": { "type": "Point", "coordinates": [ 23.002926785243169, -3.805263328598286 ] } },
{ "type": "Feature", "properties": { "id": 58, "type": "Castle", "name_fr": "Pierheaume" }, "geometry": { "type": "Point", "coordinates": [ 20.040714938006801, -3.235247799634827 ] } },
{ "type": "Feature", "properties": { "id": 59, "type": "Castle", "name_fr": "Nid de Corbeaux" }, "geometry": { "type": "Point", "coordinates": [ 21.077956310382937, -2.244729011599951 ] } },
{ "type": "Feature", "properties": { "id": 60, "type": "Town", "name_fr": "Grandview" }, "geometry": { "type": "Point", "coordinates": [ 20.283672376581389, -1.179454088619053 ] } },
{ "type": "Feature", "properties": { "id": 61, "type": "Ruin", "name_fr": "Lestival" }, "geometry": { "type": "Point", "coordinates": [ 18.498869654744965, -1.702747033241252 ] } },
{ "type": "Feature", "properties": { "id": 62, "type": "Castle", "name_fr": "Havrenoir" }, "geometry": { "type": "Point", "coordinates": [ 17.863442507703727, -2.852122608036439 ] } },
{ "type": "Feature", "properties": { "id": 63, "type": "Town", "name_fr": "Bourgfaon" }, "geometry": { "type": "Point", "coordinates": [ 18.601659340295754, 0.923062206737995 ] } },
{ "type": "Feature", "properties": { "id": 64, "type": "Castle", "name_fr": "Herbeval" }, "geometry": { "type": "Point", "coordinates": [ 17.13457019197995, 0.175500857277711 ] } },
{ "type": "Feature", "properties": { "id": 65, "type": "Castle", "name_fr": "Wyl" }, "geometry": { "type": "Point", "coordinates": [ 17.779341855889431, -4.291178205747478 ] } },
{ "type": "Feature", "properties": { "id": 66, "type": "Castle", "name_fr": "Griseffroy" }, "geometry": { "type": "Point", "coordinates": [ 19.32118713915126, -6.169426096266434 ] } },
{ "type": "Feature", "properties": { "id": 67, "type": "Castle", "name_fr": "Ferboys" }, "geometry": { "type": "Point", "coordinates": [ 16.872923719668837, -6.926331962594972 ] } },
{ "type": "Feature", "properties": { "id": 68, "type": "Castle", "name_fr": "Perche-Vautour" }, "geometry": { "type": "Point", "coordinates": [ 14.854508076126073, -4.805126633501416 ] } },
{ "type": "Feature", "properties": { "id": 69, "type": "Castle", "name_fr": "Séréna" }, "geometry": { "type": "Point", "coordinates": [ 13.611687332648355, -4.272489172010964 ] } },
{ "type": "Feature", "properties": { "id": 70, "type": "Castle", "name_fr": "Cendregué" }, "geometry": { "type": "Point", "coordinates": [ 14.648928705024495, -1.852259303133309 ] } },
{ "type": "Feature", "properties": { "id": 71, "type": "Castle", "name_fr": "Cidre" }, "geometry": { "type": "Point", "coordinates": [ 12.938882118134103, -1.300932807906349 ] } },
{ "type": "Feature", "properties": { "id": 72, "type": "Castle", "name_fr": "Hautjardin" }, "geometry": { "type": "Point", "coordinates": [ 10.714887103489763, -2.76802195622215 ] } },
{ "type": "Feature", "properties": { "id": 73, "type": "Castle", "name_fr": "Corcolline" }, "geometry": { "type": "Point", "coordinates": [ 10.798987755304045, -4.440690475639535 ] } },
{ "type": "Feature", "properties": { "id": 74, "type": "Castle", "name_fr": "Rubriant" }, "geometry": { "type": "Point", "coordinates": [ 7.920876559881961, -4.52479112745381 ] } },
{ "type": "Feature", "properties": { "id": 75, "type": "Castle", "name_fr": "Bandallon" }, "geometry": { "type": "Point", "coordinates": [ 6.453787411566156, -4.41265692503476 ] } },
{ "type": "Feature", "properties": { "id": 76, "type": "Castle", "name_fr": "Mielbois" }, "geometry": { "type": "Point", "coordinates": [ 8.154489481588298, -5.431209263674404 ] } },
{ "type": "Feature", "properties": { "id": 77, "type": "City", "name_fr": "Villevieille" }, "geometry": { "type": "Point", "coordinates": [ 7.752675256253397, -6.57124032160133 ] } },
{ "type": "Feature", "properties": { "id": 78, "type": "Castle", "name_fr": "Noircouronne" }, "geometry": { "type": "Point", "coordinates": [ 6.350997726015367, -7.244045536115586 ] } },
{ "type": "Feature", "properties": { "id": 79, "type": "Castle", "name_fr": "Trois Tours" }, "geometry": { "type": "Point", "coordinates": [ 6.995769389924861, -8.066363020521898 ] } },
{ "type": "Feature", "properties": { "id": 80, "type": "Castle", "name_fr": "Hautesterres" }, "geometry": { "type": "Point", "coordinates": [ 9.920603169688215, -6.823542277044169 ] } },
{ "type": "Feature", "properties": { "id": 81, "type": "Castle", "name_fr": "Solfoyer" }, "geometry": { "type": "Point", "coordinates": [ 9.145008269623172, -9.729687023071023 ] } },
{ "type": "Feature", "properties": { "id": 82, "type": "Castle", "name_fr": "Noirmont" }, "geometry": { "type": "Point", "coordinates": [ 12.144598184332553, -6.627307422810858 ] } },
{ "type": "Feature", "properties": { "id": 83, "type": "Castle", "name_fr": "Haut Hermitage" }, "geometry": { "type": "Point", "coordinates": [ 12.200665285542074, -7.346835221666367 ] } },
{ "type": "Feature", "properties": { "id": 84, "type": "Castle", "name_fr": "Les Météores" }, "geometry": { "type": "Point", "coordinates": [ 11.443759419213539, -8.16915270607268 ] } },
{ "type": "Feature", "properties": { "id": 85, "type": "Castle", "name_fr": "Le Grés" }, "geometry": { "type": "Point", "coordinates": [ 13.66775443385788, -9.430662483286909 ] } },
{ "type": "Feature", "properties": { "id": 86, "type": "Castle", "name_fr": "Touche-au-Ciel" }, "geometry": { "type": "Point", "coordinates": [ 14.163013827875318, -7.290768120456853 ] } },
{ "type": "Feature", "properties": { "id": 87, "type": "Castle", "name_fr": "La Tombe-du-Roy" }, "geometry": { "type": "Point", "coordinates": [ 14.331215131503882, -6.029258343242631 ] } },
{ "type": "Feature", "properties": { "id": 88, "type": "Other", "name_fr": "La Tour de la Joie" }, "geometry": { "type": "Point", "coordinates": [ 14.368593198976896, -5.13218472389029 ] } },
{ "type": "Feature", "properties": { "id": 89, "type": "Castle", "name_fr": "Denfert" }, "geometry": { "type": "Point", "coordinates": [ 16.200118505154588, -9.140982460371063 ] } },
{ "type": "Feature", "properties": { "id": 90, "type": "Castle", "name_fr": "Voi" }, "geometry": { "type": "Point", "coordinates": [ 20.395806579000418, -9.30918376399962 ] } },
{ "type": "Feature", "properties": { "id": 91, "type": "Castle", "name_fr": "Salrivage" }, "geometry": { "type": "Point", "coordinates": [ 21.358291816430533, -10.112812214669418 ] } },
{ "type": "Feature", "properties": { "id": 92, "type": "Castle", "name_fr": "La Grâcedieu" }, "geometry": { "type": "Point", "coordinates": [ 21.470426018849576, -8.542933380802822 ] } },
{ "type": "Feature", "properties": { "id": 93, "type": "Castle", "name_fr": "Le Tor" }, "geometry": { "type": "Point", "coordinates": [ 20.638764017575014, -7.290768120456853 ] } },
{ "type": "Feature", "properties": { "id": 94, "type": "Castle", "name_fr": "Spectremont" }, "geometry": { "type": "Point", "coordinates": [ 23.834588786517717, -7.449624907217157 ] } },
{ "type": "Feature", "properties": { "id": 95, "type": "Castle", "name_fr": "Boycitre" }, "geometry": { "type": "Point", "coordinates": [ 23.984101056409774, -9.589519270047219 ] } },
{ "type": "Feature", "properties": { "id": 96, "type": "Town", "name_fr": "Lancehélion" }, "geometry": { "type": "Point", "coordinates": [ 24.591494652846251, -8.926058572401217 ] } },
{ "type": "Feature", "properties": { "id": 97, "type": "Town", "name_fr": "Bourg-Cabanes" }, "geometry": { "type": "Point", "coordinates": [ 24.049512674487552, -9.103604392898035 ] } },
{ "type": "Feature", "properties": { "id": 98, "type": "Other", "name_fr": "Les Jardins Aquatiques" }, "geometry": { "type": "Point", "coordinates": [ 24.7223178890018, -8.720479201299639 ] } },
{ "type": "Feature", "properties": { "id": 99, "type": "Other", "name_fr": "Roche Panachée" }, "geometry": { "type": "Point", "coordinates": [ 22.619801593644755, -8.524244347066315 ] } },
{ "type": "Feature", "properties": { "id": 100, "type": "Town", "name_fr": null }, "geometry": { "type": "Point", "coordinates": [ 12.639857578349998, -24.965921776758421 ] } },
{ "type": "Feature", "properties": { "id": 101, "type": "Castle", "name_fr": "Longuetable" }, "geometry": { "type": "Point", "coordinates": [ 14.130308018836429, -0.226313368057212 ] } },
{ "type": "Feature", "properties": { "id": 102, "type": "Castle", "name_fr": "Pont-l'Amer" }, "geometry": { "type": "Point", "coordinates": [ 14.419988041752289, 0.736171869372903 ] } },
{ "type": "Feature", "properties": { "id": 103, "type": "Castle", "name_fr": "Boisdoré" }, "geometry": { "type": "Point", "coordinates": [ 10.775626463133413, 0.736171869372903 ] } },
{ "type": "Feature", "properties": { "id": 104, "type": "Castle", "name_fr": "Rougelac" }, "geometry": { "type": "Point", "coordinates": [ 8.775899853327159, 1.474388701964934 ] } },
{ "type": "Feature", "properties": { "id": 105, "type": "Castle", "name_fr": "Vieux Rouvre" }, "geometry": { "type": "Point", "coordinates": [ 7.336844255616115, -0.188935300584191 ] } },
{ "type": "Feature", "properties": { "id": 106, "type": "Castle", "name_fr": "Crakehall" }, "geometry": { "type": "Point", "coordinates": [ 6.542560321814565, 2.296706186371246 ] } },
{ "type": "Feature", "properties": { "id": 107, "type": "Castle", "name_fr": "Champmoisson" }, "geometry": { "type": "Point", "coordinates": [ 8.54228693162082, 2.894755265939473 ] } },
{ "type": "Feature", "properties": { "id": 108, "type": "Castle", "name_fr": "Montargent" }, "geometry": { "type": "Point", "coordinates": [ 10.710214845055638, 3.632972098531496 ] } },
{ "type": "Feature", "properties": { "id": 109, "type": "Castle", "name_fr": null }, "geometry": { "type": "Point", "coordinates": [ 9.159025044925553, 4.053475357602913 ] } },
{ "type": "Feature", "properties": { "id": 110, "type": "Ruin", "name_fr": "Château Tarbeck" }, "geometry": { "type": "Point", "coordinates": [ 7.02847519896375, 4.016097290129899 ] } },
{ "type": "Feature", "properties": { "id": 111, "type": "City", "name_fr": "Lannisport" }, "geometry": { "type": "Point", "coordinates": [ 7.364877806220878, 5.221539966134607 ] } },
{ "type": "Feature", "properties": { "id": 112, "type": "Castle", "name_fr": "Feux-de-Joie" }, "geometry": { "type": "Point", "coordinates": [ 5.701553803671749, 4.997271561296522 ] } },
{ "type": "Feature", "properties": { "id": 113, "type": "Town", "name_fr": "Kayce" }, "geometry": { "type": "Point", "coordinates": [ 5.972544792851102, 5.53925353965522 ] } },
{ "type": "Feature", "properties": { "id": 114, "type": "Other", "name_fr": null }, "geometry": { "type": "Point", "coordinates": [ 8.112439155681159, 5.969101315594891 ] } },
{ "type": "Feature", "properties": { "id": 115, "type": "Castle", "name_fr": "Sarschamp" }, "geometry": { "type": "Point", "coordinates": [ 8.96279019069223, 6.455016192744068 ] } },
{ "type": "Feature", "properties": { "id": 116, "type": "Castle", "name_fr": "Antrecombe" }, "geometry": { "type": "Point", "coordinates": [ 11.270885857150851, 5.05333866250605 ] } },
{ "type": "Feature", "properties": { "id": 117, "type": "Castle", "name_fr": "Corval" }, "geometry": { "type": "Point", "coordinates": [ 11.055961969181022, 5.94106776499013 ] } },
{ "type": "Feature", "properties": { "id": 118, "type": "Other", "name_fr": "La Dent d'Or" }, "geometry": { "type": "Point", "coordinates": [ 10.644803226977865, 7.296022710886888 ] } },
{ "type": "Feature", "properties": { "id": 119, "type": "Castle", "name_fr": "Bel Accueil" }, "geometry": { "type": "Point", "coordinates": [ 11.981069139138121, 7.996861476005911 ] } },
{ "type": "Feature", "properties": { "id": 120, "type": "Ruin", "name_fr": "Castamere" }, "geometry": { "type": "Point", "coordinates": [ 8.420808212333528, 7.697836936221798 ] } },
{ "type": "Feature", "properties": { "id": 121, "type": "Other", "name_fr": null }, "geometry": { "type": "Point", "coordinates": [ 9.177714078662062, 8.763111859202702 ] } },
{ "type": "Feature", "properties": { "id": 122, "type": "Castle", "name_fr": "Falaise" }, "geometry": { "type": "Point", "coordinates": [ 8.402119178597021, 8.809834443543956 ] } },
{ "type": "Feature", "properties": { "id": 123, "type": "Castle", "name_fr": "Fléaufort" }, "geometry": { "type": "Point", "coordinates": [ 8.402119178597021, 10.155444872572467 ] } },
{ "type": "Feature", "properties": { "id": 124, "type": "Castle", "name_fr": "Cendremarc" }, "geometry": { "type": "Point", "coordinates": [ 9.140336011189049, 8.015550509742404 ] } },
{ "type": "Feature", "properties": { "id": 125, "type": "Other", "name_fr": null }, "geometry": { "type": "Point", "coordinates": [ 9.813141225703303, 9.501328691794718 ] } },
{ "type": "Feature", "properties": { "id": 126, "type": "Other", "name_fr": "Moulin-de-Pierre" }, "geometry": { "type": "Point", "coordinates": [ 13.22388988261584, 8.538843454364617 ] } },
{ "type": "Feature", "properties": { "id": 127, "type": "Castle", "name_fr": "la Haye-Pierre" }, "geometry": { "type": "Point", "coordinates": [ 15.204927458685589, 9.435917073716951 ] } },
{ "type": "Feature", "properties": { "id": 128, "type": "Castle", "name_fr": "Beaumarché" }, "geometry": { "type": "Point", "coordinates": [ 14.803113233350686, 11.482366267864471 ] } },
{ "type": "Feature", "properties": { "id": 129, "type": "Ruin", "name_fr": "Vieilles-Pierres" }, "geometry": { "type": "Point", "coordinates": [ 13.812594445315813, 11.977625661881909 ] } },
{ "type": "Feature", "properties": { "id": 130, "type": "Other", "name_fr": null }, "geometry": { "type": "Point", "coordinates": [ 17.541056675748969, 11.145963660607343 ] } },
{ "type": "Feature", "properties": { "id": 131, "type": "Castle", "name_fr": "La Porte Sanglante" }, "geometry": { "type": "Point", "coordinates": [ 19.867841375944096, 11.669256605229542 ] } },
{ "type": "Feature", "properties": { "id": 132, "type": "Castle", "name_fr": "Les Eyrié" }, "geometry": { "type": "Point", "coordinates": [ 19.942597510890124, 12.211238583588248 ] } },
{ "type": "Feature", "properties": { "id": 133, "type": "Castle", "name_fr": "Forchant" }, "geometry": { "type": "Point", "coordinates": [ 18.307307058945756, 13.827840001796105 ] } },
{ "type": "Feature", "properties": { "id": 134, "type": "Castle", "name_fr": "Cordial" }, "geometry": { "type": "Point", "coordinates": [ 20.839671130242465, 13.790461934323098 ] } },
{ "type": "Feature", "properties": { "id": 135, "type": "Castle", "name_fr": "Rougefort" }, "geometry": { "type": "Point", "coordinates": [ 21.680677648385281, 10.949728806374026 ] } },
{ "type": "Feature", "properties": { "id": 136, "type": "Castle", "name_fr": "Chênes-en-fer" }, "geometry": { "type": "Point", "coordinates": [ 22.624473852078886, 12.370095370348558 ] } },
{ "type": "Feature", "properties": { "id": 137, "type": "Castle", "name_fr": "Vieux Havre" }, "geometry": { "type": "Point", "coordinates": [ 23.783193943742326, 12.706497977605686 ] } },
{ "type": "Feature", "properties": { "id": 138, "type": "Castle", "name_fr": "Roches-aux-runes" }, "geometry": { "type": "Point", "coordinates": [ 24.969947586010523, 12.407473437821572 ] } },
{ "type": "Feature", "properties": { "id": 139, "type": "City", "name_fr": "Goëville" }, "geometry": { "type": "Point", "coordinates": [ 24.66157852935816, 11.529088852205739 ] } },
{ "type": "Feature", "properties": { "id": 140, "type": "Castle", "name_fr": "Longarc" }, "geometry": { "type": "Point", "coordinates": [ 23.988773314843904, 14.584745868124642 ] } },
{ "type": "Feature", "properties": { "id": 141, "type": "Castle", "name_fr": "Guivrebois" }, "geometry": { "type": "Point", "coordinates": [ 22.428238997845568, 15.472474970608729 ] } },
{ "type": "Feature", "properties": { "id": 142, "type": "Other", "name_fr": null }, "geometry": { "type": "Point", "coordinates": [ 25.437173429423201, 15.958389847757914 ] } },
{ "type": "Feature", "properties": { "id": 143, "type": "Castle", "name_fr": "La Brûlée-Froideseaux" }, "geometry": { "type": "Point", "coordinates": [ 21.90494605322337, 16.631195062272162 ] } },
{ "type": "Feature", "properties": { "id": 144, "type": "Castle", "name_fr": "Salvemer" }, "geometry": { "type": "Point", "coordinates": [ 13.074377612723788, 13.295202540305652 ] } },
{ "type": "Feature", "properties": { "id": 145, "type": "Castle", "name_fr": "Les Jumeaux" }, "geometry": { "type": "Point", "coordinates": [ 13.298646017561873, 14.4726116657056 ] } },
{ "type": "Feature", "properties": { "id": 146, "type": "Castle", "name_fr": null }, "geometry": { "type": "Point", "coordinates": [ 13.167822781406324, 14.313754878945289 ] } },
{ "type": "Feature", "properties": { "id": 147, "type": "Castle", "name_fr": "Fort-Griseaux" }, "geometry": { "type": "Point", "coordinates": [ 14.242442221255478, 17.014320253870558 ] } },
{ "type": "Feature", "properties": { "id": 148, "type": "Ruin", "name_fr": "Moat Cailin" }, "geometry": { "type": "Point", "coordinates": [ 14.821802267087199, 20.154077921603744 ] } },
{ "type": "Feature", "properties": { "id": 149, "type": "Town", "name_fr": "Sortonne" }, "geometry": { "type": "Point", "coordinates": [ 18.802566452963202, 18.285174547953037 ] } },
{ "type": "Feature", "properties": { "id": 150, "type": "Castle", "name_fr": "Châteauvieux" }, "geometry": { "type": "Point", "coordinates": [ 18.12976123844895, 19.228970751646642 ] } },
{ "type": "Feature", "properties": { "id": 151, "type": "City", "name_fr": "Blancport" }, "geometry": { "type": "Point", "coordinates": [ 16.933663079312495, 21.368865114476701 ] } },
{ "type": "Feature", "properties": { "id": 152, "type": "Castle", "name_fr": "Porte-Béline" }, "geometry": { "type": "Point", "coordinates": [ 21.204107288104357, 22.471518104930624 ] } },
{ "type": "Feature", "properties": { "id": 153, "type": "Castle", "name_fr": "La Veuve" }, "geometry": { "type": "Point", "coordinates": [ 24.222386236550246, 21.901502575967161 ] } },
{ "type": "Feature", "properties": { "id": 154, "type": "Castle", "name_fr": "Corbois" }, "geometry": { "type": "Point", "coordinates": [ 18.980112273460019, 24.919781524413047 ] } },
{ "type": "Feature", "properties": { "id": 155, "type": "Other", "name_fr": null }, "geometry": { "type": "Point", "coordinates": [ 18.596987081861627, 25.910300312447919 ] } },
{ "type": "Feature", "properties": { "id": 156, "type": "Castle", "name_fr": "Fort-Terreur" }, "geometry": { "type": "Point", "coordinates": [ 19.914563960285374, 27.358700427027216 ] } },
{ "type": "Feature", "properties": { "id": 157, "type": "Castle", "name_fr": "Castel-Cerwyn" }, "geometry": { "type": "Point", "coordinates": [ 14.597533862249115, 26.059812582339976 ] } },
{ "type": "Feature", "properties": { "id": 158, "type": "Other", "name_fr": null }, "geometry": { "type": "Point", "coordinates": [ 14.803113233350691, 26.826062965536767 ] } },
{ "type": "Feature", "properties": { "id": 159, "type": "Castle", "name_fr": "Winterfell" }, "geometry": { "type": "Point", "coordinates": [ 14.560155794776101, 26.611139077566936 ] } },
{ "type": "Feature", "properties": { "id": 160, "type": "Other", "name_fr": "Village de paysans nordiens" }, "geometry": { "type": "Point", "coordinates": [ 14.130308018836438, 26.826062965536767 ] } },
{ "type": "Feature", "properties": { "id": 161, "type": "Other", "name_fr": null }, "geometry": { "type": "Point", "coordinates": [ 14.191047378480089, 27.601657865601808 ] } },
{ "type": "Feature", "properties": { "id": 162, "type": "Castle", "name_fr": "Motte-la-Forêt" }, "geometry": { "type": "Point", "coordinates": [ 10.658820002280255, 29.358427036833472 ] } },
{ "type": "Feature", "properties": { "id": 163, "type": "Castle", "name_fr": "Âtre-lès-Confins" }, "geometry": { "type": "Point", "coordinates": [ 19.367909723492534, 31.330120096034964 ] } },
{ "type": "Feature", "properties": { "id": 164, "type": "Castle", "name_fr": "Karhold" }, "geometry": { "type": "Point", "coordinates": [ 23.638353932284399, 29.498594789857275 ] } },
{ "type": "Feature", "properties": { "id": 165, "type": "Other", "name_fr": "Reine-Couronne" }, "geometry": { "type": "Point", "coordinates": [ 18.153122530619584, 33.787728032385644 ] } },
{ "type": "Feature", "properties": { "id": 166, "type": "Castle", "name_fr": "Châteaunoir" }, "geometry": { "type": "Point", "coordinates": [ 18.853961295738596, 34.890381022839563 ] } },
{ "type": "Feature", "properties": { "id": 167, "type": "Other", "name_fr": null }, "geometry": { "type": "Point", "coordinates": [ 18.88199484634336, 34.600700999923703 ] } },
{ "type": "Feature", "properties": { "id": 168, "type": "Castle", "name_fr": "Tour Ombreuse" }, "geometry": { "type": "Point", "coordinates": [ 16.358975291914906, 34.993170708390352 ] } },
{ "type": "Feature", "properties": { "id": 169, "type": "Other", "name_fr": "Fort Couchant le Pont" }, "geometry": { "type": "Point", "coordinates": [ 16.050606235262538, 34.993170708390352 ] } },
{ "type": "Feature", "properties": { "id": 170, "type": "Other", "name_fr": "La Vigie" }, "geometry": { "type": "Point", "coordinates": [ 16.709394674474417, 35.016532000560986 ] } },
{ "type": "Feature", "properties": { "id": 171, "type": "Other", "name_fr": "Griposte" }, "geometry": { "type": "Point", "coordinates": [ 17.073830832336302, 34.927759090312577 ] } },
{ "type": "Feature", "properties": { "id": 172, "type": "Other", "name_fr": "La Roque" }, "geometry": { "type": "Point", "coordinates": [ 17.414905698027557, 35.053910068034 ] } },
{ "type": "Feature", "properties": { "id": 173, "type": "Other", "name_fr": "Mont-Frimas" }, "geometry": { "type": "Point", "coordinates": [ 17.653190878168022, 35.039893292731612 ] } },
{ "type": "Feature", "properties": { "id": 174, "type": "Other", "name_fr": "Glacière" }, "geometry": { "type": "Point", "coordinates": [ 17.933526384215629, 34.993170708390352 ] } },
{ "type": "Feature", "properties": { "id": 175, "type": "Other", "name_fr": "Fort-Nox" }, "geometry": { "type": "Point", "coordinates": [ 18.167139305921964, 34.951120382483211 ] } },
{ "type": "Feature", "properties": { "id": 176, "type": "Other", "name_fr": "Noirlac" }, "geometry": { "type": "Point", "coordinates": [ 18.354029643287035, 34.913742315010197 ] } },
{ "type": "Feature", "properties": { "id": 177, "type": "Other", "name_fr": "Porte Reine" }, "geometry": { "type": "Point", "coordinates": [ 18.568953531256867, 34.871691989103056 ] } },
{ "type": "Feature", "properties": { "id": 178, "type": "Other", "name_fr": null }, "geometry": { "type": "Point", "coordinates": [ 19.134296801786203, 34.810952629459408 ] } },
{ "type": "Feature", "properties": { "id": 179, "type": "Other", "name_fr": "Sylve-Étang" }, "geometry": { "type": "Point", "coordinates": [ 19.372581981926668, 34.796935854157027 ] } },
{ "type": "Feature", "properties": { "id": 180, "type": "Other", "name_fr": "Sablé" }, "geometry": { "type": "Point", "coordinates": [ 19.680951038579039, 34.75021326981576 ] } },
{ "type": "Feature", "properties": { "id": 181, "type": "Other", "name_fr": "La Givrée" }, "geometry": { "type": "Point", "coordinates": [ 19.965958803060769, 34.731524236079252 ] } },
{ "type": "Feature", "properties": { "id": 182, "type": "Other", "name_fr": "Longtertre" }, "geometry": { "type": "Point", "coordinates": [ 20.190227207898854, 34.694146168606238 ] } },
{ "type": "Feature", "properties": { "id": 183, "type": "Other", "name_fr": "Torchères" }, "geometry": { "type": "Point", "coordinates": [ 20.409823354302812, 34.670784876435604 ] } },
{ "type": "Feature", "properties": { "id": 184, "type": "Other", "name_fr": "Verposte" }, "geometry": { "type": "Point", "coordinates": [ 20.573352399497249, 34.628734550528463 ] } },
{ "type": "Feature", "properties": { "id": 185, "type": "Castle", "name_fr": "Fort-Levant" }, "geometry": { "type": "Point", "coordinates": [ 20.718192410955179, 34.792263595722901 ] } },
{ "type": "Feature", "properties": { "id": 186, "type": "Other", "name_fr": "L'Arbre blanc" }, "geometry": { "type": "Point", "coordinates": [ 18.167139305921964, 35.409001709027628 ] } },
{ "type": "Feature", "properties": { "id": 187, "type": "Other", "name_fr": "Manoir de Craster" }, "geometry": { "type": "Point", "coordinates": [ 17.625157327563262, 36.296730811511715 ] } },
{ "type": "Feature", "properties": { "id": 188, "type": "Other", "name_fr": "Poing des Premiers Hommes" }, "geometry": { "type": "Point", "coordinates": [ 16.24216883106174, 37.212493464600556 ] } },
{ "type": "Feature", "properties": { "id": 189, "type": "Other", "name_fr": null }, "geometry": { "type": "Point", "coordinates": [ 5.140882791576549, 24.48058923160513 ] } },
{ "type": "Feature", "properties": { "id": 190, "type": "Other", "name_fr": null }, "geometry": { "type": "Point", "coordinates": [ 15.513296515337961, 8.926640904397118 ] } },
{ "type": "Feature", "properties": { "id": 191, "type": "City", "name_fr": "Lys" }, "geometry": { "type": "Point", "coordinates": [ 31.693327472718931, -8.996142448913155 ] } },
{ "type": "Feature", "properties": { "id": 192, "type": "City", "name_fr": "Tyrosh" }, "geometry": { "type": "Point", "coordinates": [ 28.511519479078594, -3.562305890023715 ] } },
{ "type": "Feature", "properties": { "id": 193, "type": "City", "name_fr": "Myr" }, "geometry": { "type": "Point", "coordinates": [ 33.697726340959306, -2.590476135725346 ] } },
{ "type": "Feature", "properties": { "id": 194, "type": "City", "name_fr": "Pentos" }, "geometry": { "type": "Point", "coordinates": [ 31.127984202189584, 4.632835403434626 ] } },
{ "type": "Feature", "properties": { "id": 195, "type": "Ruin", "name_fr": "Ghoyan Drohe" }, "geometry": { "type": "Point", "coordinates": [ 35.099403871197332, 5.595320640864728 ] } },
{ "type": "Feature", "properties": { "id": 196, "type": "City", "name_fr": "Norvos" }, "geometry": { "type": "Point", "coordinates": [ 38.313917673876539, 8.763111859202681 ] } },
{ "type": "Feature", "properties": { "id": 197, "type": "Castle", "name_fr": "La Vesprée" }, "geometry": { "type": "Point", "coordinates": [ 24.799410153164867, 0.271282155177303 ] } },
{ "type": "Feature", "properties": { "id": 198, "type": "Other", "name_fr": null }, "geometry": { "type": "Point", "coordinates": [ 24.276117208542669, 1.401968696235983 ] } },
{ "type": "Feature", "properties": { "id": 199, "type": "Castle", "name_fr": "Braavos" }, "geometry": { "type": "Point", "coordinates": [ 30.976135803080446, 16.241061483022591 ] } },
{ "type": "Feature", "properties": { "id": 200, "type": "Castle", "name_fr": "Lorath" }, "geometry": { "type": "Point", "coordinates": [ 36.227754283038934, 14.783316851575037 ] } },
{ "type": "Feature", "properties": { "id": 201, "type": "City", "name_fr": "Qohor" }, "geometry": { "type": "Point", "coordinates": [ 44.955533037987735, 4.747305735070746 ] } },
{ "type": "Feature", "properties": { "id": 202, "type": "Ruin", "name_fr": "Ar Noy" }, "geometry": { "type": "Point", "coordinates": [ 42.02135474135612, 2.579377821635923 ] } },
{ "type": "Feature", "properties": { "id": 203, "type": "Ruin", "name_fr": "Ny Sar" }, "geometry": { "type": "Point", "coordinates": [ 38.713395769994371, 3.3082501373597 ] } },
{ "type": "Feature", "properties": { "id": 204, "type": "Ruin", "name_fr": "Les Chagrins" }, "geometry": { "type": "Point", "coordinates": [ 40.488853974962552, -1.887301241389281 ] } },
{ "type": "Feature", "properties": { "id": 205, "type": "Town", "name_fr": "Selhorys" }, "geometry": { "type": "Point", "coordinates": [ 41.236415324422836, -5.344772482643073 ] } },
{ "type": "Feature", "properties": { "id": 206, "type": "Town", "name_fr": "Valysar" }, "geometry": { "type": "Point", "coordinates": [ 41.180348223213315, -7.138919721347754 ] } },
{ "type": "Feature", "properties": { "id": 207, "type": "Town", "name_fr": "Volon Therys" }, "geometry": { "type": "Point", "coordinates": [ 41.927909572673599, -8.260261745538173 ] } },
{ "type": "Feature", "properties": { "id": 208, "type": "Ruin", "name_fr": "Sar Mell" }, "geometry": { "type": "Point", "coordinates": [ 42.376446382349769, -8.166816576855638 ] } },
{ "type": "Feature", "properties": { "id": 209, "type": "City", "name_fr": "Volantis" }, "geometry": { "type": "Point", "coordinates": [ 43.637956159563991, -9.213402466100035 ] } },
{ "type": "Feature", "properties": { "id": 210, "type": "Other", "name_fr": null }, "geometry": { "type": "Point", "coordinates": [ 51.36587160960967, -12.423244010345122 ] } },
{ "type": "Feature", "properties": { "id": 211, "type": "Ruin", "name_fr": null }, "geometry": { "type": "Point", "coordinates": [ 53.99168084958891, -11.362641345798352 ] } },
{ "type": "Feature", "properties": { "id": 212, "type": "City", "name_fr": "Mantarys" }, "geometry": { "type": "Point", "coordinates": [ 56.533389437753868, -11.647649110280085 ] } },
{ "type": "Feature", "properties": { "id": 213, "type": "Ruin", "name_fr": null }, "geometry": { "type": "Point", "coordinates": [ 52.889027859134998, -16.30121851067031 ] } },
{ "type": "Feature", "properties": { "id": 214, "type": "Ruin", "name_fr": "Oros" }, "geometry": { "type": "Point", "coordinates": [ 55.869928740107866, -18.534558042182908 ] } },
{ "type": "Feature", "properties": { "id": 215, "type": "City", "name_fr": "Elyria" }, "geometry": { "type": "Point", "coordinates": [ 57.729487596890316, -13.768854439373619 ] } },
{ "type": "Feature", "properties": { "id": 216, "type": "City", "name_fr": "Tolos" }, "geometry": { "type": "Point", "coordinates": [ 59.131165127128341, -13.21752794414666 ] } },
{ "type": "Feature", "properties": { "id": 217, "type": "Ruin", "name_fr": "Ghozaï" }, "geometry": { "type": "Point", "coordinates": [ 60.691699444126684, -15.273321655162434 ] } },
{ "type": "Feature", "properties": { "id": 218, "type": "Ruin", "name_fr": "Velos" }, "geometry": { "type": "Point", "coordinates": [ 61.046791085120311, -17.13288051194489 ] } },
{ "type": "Feature", "properties": { "id": 219, "type": "Ruin", "name_fr": null }, "geometry": { "type": "Point", "coordinates": [ 60.663665893521923, -16.525486915508409 ] } },
{ "type": "Feature", "properties": { "id": 220, "type": "City", "name_fr": "Astapor" }, "geometry": { "type": "Point", "coordinates": [ 64.915421068577288, -15.23594358768942 ] } },
{ "type": "Feature", "properties": { "id": 221, "type": "City", "name_fr": "Yunkaï" }, "geometry": { "type": "Point", "coordinates": [ 65.849872755402629, -11.245834884945147 ] } },
{ "type": "Feature", "properties": { "id": 222, "type": "City", "name_fr": "Meereen" }, "geometry": { "type": "Point", "coordinates": [ 67.130071566353365, -9.610544433000776 ] } },
{ "type": "Feature", "properties": { "id": 223, "type": "Other", "name_fr": null }, "geometry": { "type": "Point", "coordinates": [ 73.035806227089608, -7.138919721347712 ] } },
{ "type": "Feature", "properties": { "id": 224, "type": "City", "name_fr": null }, "geometry": { "type": "Point", "coordinates": [ 64.938782360747908, -1.144412150363081 ] } },
{ "type": "Feature", "properties": { "id": 225, "type": "Ruin", "name_fr": "Ghis" }, "geometry": { "type": "Point", "coordinates": [ 65.807822429495488, -19.702622650714616 ] } },
{ "type": "Feature", "properties": { "id": 226, "type": "City", "name_fr": "Nouvelle-Ghis" }, "geometry": { "type": "Point", "coordinates": [ 66.770307666925589, -23.571252634171586 ] } },
{ "type": "Feature", "properties": { "id": 227, "type": "Ruin", "name_fr": "Zamettar" }, "geometry": { "type": "Point", "coordinates": [ 64.63975782096378, -31.205722915534736 ] } },
{ "type": "Feature", "properties": { "id": 228, "type": "Ruin", "name_fr": "Yéen" }, "geometry": { "type": "Point", "coordinates": [ 65.691015968642304, -33.976372166971913 ] } },
{ "type": "Feature", "properties": { "id": 229, "type": "Ruin", "name_fr": "Gogossos" }, "geometry": { "type": "Point", "coordinates": [ 61.392538209245679, -33.602591492241757 ] } },
{ "type": "Feature", "properties": { "id": 230, "type": "Castle", "name_fr": "Pouce-Flint" }, "geometry": { "type": "Point", "coordinates": [ 8.016657857781524, 18.511779082008186 ] } },
{ "type": "Feature", "properties": { "id": 231, "type": "Town", "name_fr": "Tertre-bourg" }, "geometry": { "type": "Point", "coordinates": [ 11.203138109855981, 21.857116120842957 ] } },
{ "type": "Feature", "properties": { "id": 232, "type": "Castle", "name_fr": "Quart-Torrhen" }, "geometry": { "type": "Point", "coordinates": [ 11.866598807501983, 24.604404080109493 ] } },
{ "type": "Feature", "properties": { "id": 233, "type": "Ruin", "name_fr": "Bhorash" }, "geometry": { "type": "Point", "coordinates": [ 62.193837082112005, -10.130148540433204 ] } },
{ "type": "Feature", "properties": { "id": 234, "type": "Castle", "name_fr": "Pyk" }, "geometry": { "type": "Point", "coordinates": [ 7.548877424568763, 11.060546672953011 ] } },
{ "type": "Feature", "properties": { "id": 235, "type": "Other", "name_fr": null }, "geometry": { "type": "Point", "coordinates": [ 7.043347117456695, 11.58577296605646 ] } },
{ "type": "Feature", "properties": { "id": 236, "type": "Other", "name_fr": "Cormartel" }, "geometry": { "type": "Point", "coordinates": [ 6.097939789870489, 11.854951441271973 ] } },
{ "type": "Feature", "properties": { "id": 237, "type": "Other", "name_fr": "Les ossements de Nagga" }, "geometry": { "type": "Point", "coordinates": [ 6.616600754310144, 12.130695245151284 ] } },
{ "type": "Feature", "properties": { "id": 238, "type": "Other", "name_fr": "Cormartel" }, "geometry": { "type": "Point", "coordinates": [ 6.820125942887731, 12.31452444773749 ] } },
{ "type": "Feature", "properties": { "id": 239, "type": "Castle", "name_fr": "Dix-Tours" }, "geometry": { "type": "Point", "coordinates": [ 9.131121632542904, 12.137260573815077 ] } },
{ "type": "Feature", "properties": { "id": 240, "type": "Castle", "name_fr": "Belcastel" }, "geometry": { "type": "Point", "coordinates": [ 7.00395514547394, 7.351135977909905 ] } },
{ "type": "Feature", "properties": { "id": 241, "type": "Ruin", "name_fr": "Tyria" }, "geometry": { "type": "Point", "coordinates": [ 55.383862068965335, -19.967196592133206 ] } },
{ "type": "Feature", "properties": { "id": 242, "type": "Ruin", "name_fr": "Valyria" }, "geometry": { "type": "Point", "coordinates": [ 54.753590517241193, -22.232234981141833 ] } },
{ "type": "Feature", "properties": { "id": 243, "type": "Ruin", "name_fr": null }, "geometry": { "type": "Point", "coordinates": [ 57.799903017241192, -21.930229862607348 ] } },
{ "type": "Feature", "properties": { "id": 244, "type": "Ruin", "name_fr": null }, "geometry": { "type": "Point", "coordinates": [ 52.317853582973946, -20.774732017779758 ] } },
{ "type": "Feature", "properties": { "id": 245, "type": "Ruin", "name_fr": null }, "geometry": { "type": "Point", "coordinates": [ 54.083926993534305, -24.6417106007539 ] } },
{ "type": "Feature", "properties": { "id": 246, "type": "City", "name_fr": "Qarth" }, "geometry": { "type": "Point", "coordinates": [ 87.984001549030026, -34.588183526400464 ] } },
{ "type": "Feature", "properties": { "id": 247, "type": "Other", "name_fr": "Houëttlord" }, "geometry": { "type": "Point", "coordinates": [ 7.68674932650837, -1.922390759697838 ] } },
{ "type": "Feature", "properties": { "id": 249, "type": "Castle", "name_fr": "Castral Roc" }, "geometry": { "type": "Point", "coordinates": [ 7.319998245482508, 5.46249188403932 ] } },
{ "type": "Feature", "properties": { "id": 250, "type": "Town", "name_fr": "Lamarck" }, "geometry": { "type": "Point", "coordinates": [ 23.934776168127684, 6.727600586442601 ] } }
]
}
