{
"type": "FeatureCollection",
"name": "paysage",
"crs": { "type": "name", "properties": { "name": "urn:ogc:def:crs:OGC:1.3:CRS84" } },
"features": [
{ "type": "Feature", "properties": { "id": 1, "type": "forest", "size": 3, "name_fr": "Bois-la-Pluie" }, "geometry": { "type": "MultiPolygon", "coordinates": [ [ [ [ 23.232283464566969, -4.624015748031429 ], [ 22.964566929133898, -4.537401574803083 ], [ 22.996062992126024, -4.277559055118045 ], [ 23.224409448818935, -4.183070866141668 ], [ 22.980314960629961, -4.033464566929069 ], [ 22.767716535433113, -4.151574803149542 ], [ 22.460629921259883, -4.096456692913321 ], [ 22.255905511811065, -3.805118110236157 ], [ 21.933070866141776, -4.041338582677101 ], [ 21.704724409448865, -4.041338582677101 ], [ 21.429133858267765, -3.828740157480252 ], [ 21.161417322834694, -3.868110236220409 ], [ 20.885826771653594, -4.017716535433007 ], [ 20.413385826771705, -3.82086614173222 ], [ 20.468503937007924, -3.663385826771592 ], [ 20.311023622047298, -3.38779527559049 ], [ 19.980314960629975, -3.324803149606239 ], [ 19.996062992126038, -3.183070866141672 ], [ 19.972440944881942, -2.962598425196791 ], [ 20.098425196850446, -2.710629921259785 ], [ 20.208661417322887, -2.608267716535376 ], [ 20.688976377952809, -2.616141732283407 ], [ 20.870078740157531, -2.68700787401569 ], [ 21.114173228346505, -2.781496062992068 ], [ 21.303149606299261, -2.702755905511753 ], [ 21.507874015748079, -2.663385826771596 ], [ 21.767716535433117, -2.694881889763722 ], [ 22.003937007874061, -2.356299212598369 ], [ 22.114173228346502, -2.490157480314903 ], [ 22.350393700787446, -2.222440944881834 ], [ 22.059055118110283, -2.017716535433016 ], [ 22.122047244094535, -1.852362204724356 ], [ 22.334645669291383, -1.860236220472387 ], [ 22.47637795275595, -1.797244094488135 ], [ 22.712598425196894, -1.915354330708607 ], [ 22.74409448818902, -2.159448818897582 ], [ 22.948818897637835, -2.269685039370023 ], [ 23.208661417322876, -2.387795275590495 ], [ 23.389763779527598, -2.135826771653488 ], [ 23.192913385826813, -1.860236220472387 ], [ 23.484251968503976, -1.773622047244041 ], [ 23.696850393700824, -1.923228346456639 ], [ 23.665354330708698, -2.025590551181048 ], [ 23.822834645669328, -1.994094488188922 ], [ 24.027559055118147, -2.112204724409394 ], [ 24.248031496063028, -2.246062992125928 ], [ 24.46850393700791, -2.293307086614117 ], [ 24.791338582677199, -2.261811023621991 ], [ 24.996062992126017, -1.970472440944827 ], [ 25.185039370078769, -1.946850393700733 ], [ 25.263779527559088, -2.088582677165299 ], [ 25.098425196850425, -2.332677165354275 ], [ 25.145669291338614, -2.584645669291281 ], [ 24.917322834645702, -2.797244094488131 ], [ 24.610236220472473, -2.970472440944823 ], [ 24.374015748031532, -3.017716535433012 ], [ 24.129921259842554, -3.159448818897578 ], [ 24.04330708661421, -3.521653543307025 ], [ 23.901574803149643, -3.757874015747969 ], [ 23.901574803149643, -3.946850393700724 ], [ 23.996062992126021, -4.096456692913321 ], [ 23.996062992126021, -4.324803149606234 ], [ 23.712598425196887, -4.372047244094423 ], [ 23.381889763779569, -4.498031496062926 ], [ 23.263779527559095, -4.435039370078674 ], [ 23.232283464566969, -4.624015748031429 ] ] ] ] } },
{ "type": "Feature", "properties": { "id": 2, "type": "forest", "size": 3, "name_fr": "Bois-du-Roi" }, "geometry": { "type": "MultiPolygon", "coordinates": [ [ [ [ 22.389763779527598, 3.399606299212627 ], [ 22.468503937007913, 3.218503937007903 ], [ 22.350393700787443, 3.005905511811054 ], [ 22.342519685039409, 2.801181102362236 ], [ 22.468503937007913, 2.675196850393733 ], [ 22.122047244094531, 2.54921259842523 ], [ 22.090551181102406, 2.320866141732317 ], [ 22.326771653543346, 2.407480314960663 ], [ 22.405511811023661, 2.289370078740191 ], [ 22.366141732283506, 2.053149606299248 ], [ 22.208661417322876, 1.95866141732287 ], [ 22.216535433070909, 1.659448818897675 ], [ 21.783464566929176, 1.627952755905549 ], [ 21.625984251968546, 0.368110236220516 ], [ 21.177165354330754, 0.187007874015792 ], [ 20.633858267716583, 0.320866141732327 ], [ 20.082677165354383, 0.383858267716579 ], [ 19.63385826771659, 0.328740157480358 ], [ 19.098425196850457, 0.061023622047289 ], [ 18.838582677165416, 0.037401574803194 ], [ 18.618110236220538, 0.541338582677208 ], [ 18.95669291338589, 1.061023622047284 ], [ 18.838582677165416, 1.234251968503976 ], [ 18.555118110236286, 1.068897637795315 ], [ 17.783464566929201, 1.950787401574839 ], [ 18.492125984252034, 2.588582677165387 ], [ 17.807086614173297, 2.942913385826803 ], [ 18.358267716535494, 3.368110236220502 ], [ 18.893700787401631, 3.415354330708691 ], [ 19.358267716535487, 3.218503937007904 ], [ 19.476377952755961, 2.990157480314992 ], [ 20.5, 3.312992125984282 ], [ 21.641732283464613, 3.533464566929163 ], [ 22.389763779527598, 3.399606299212627 ] ] ] ] } },
{ "type": "Feature", "properties": { "id": 3, "type": "forest", "size": 2, "name_fr": null }, "geometry": { "type": "MultiPolygon", "coordinates": [ [ [ [ 7.578740157480439, 3.872047244094514 ], [ 7.948818897637918, 3.738188976377979 ], [ 8.019685039370202, 3.281496062992154 ], [ 7.925196850393823, 3.045275590551211 ], [ 7.63385826771666, 2.895669291338613 ], [ 7.381889763779653, 1.990157480314995 ], [ 7.492125984252093, 1.596456692913423 ], [ 7.122047244094615, 0.982283464566969 ], [ 6.681102362204854, 1.045275590551221 ], [ 6.476377952756035, 1.935039370078775 ], [ 6.72047244094501, 2.470472440944914 ], [ 6.925196850393828, 2.612204724409481 ], [ 6.826006615607005, 2.949451522684681 ], [ 6.8442130069672, 2.985864305405073 ], [ 6.821454674417078, 3.073646445241258 ], [ 6.898182116413833, 3.393344120227742 ], [ 6.904755093476963, 3.404641424554995 ], [ 6.905541418966092, 3.411521772584872 ], [ 7.318897637795401, 3.832677165354357 ], [ 7.578740157480439, 3.872047244094514 ] ] ] ] } },
{ "type": "Feature", "properties": { "id": 4, "type": "forest", "size": 1, "name_fr": null }, "geometry": { "type": "MultiPolygon", "coordinates": [ [ [ [ 17.29527559055127, 8.057086614173231 ], [ 17.393700787401663, 8.218503937007876 ], [ 17.610236220472526, 8.24212598425197 ], [ 17.795275590551267, 8.092519685039374 ], [ 17.771653543307171, 7.958661417322839 ], [ 17.968503937007959, 7.899606299212603 ], [ 17.984251968504022, 7.789370078740162 ], [ 17.937007874015833, 7.702755905511816 ], [ 17.964566929133941, 7.600393700787407 ], [ 17.767716535433156, 7.375984251968511 ], [ 17.622047244094574, 7.521653543307092 ], [ 17.724409448818982, 7.631889763779533 ], [ 17.728346456693, 7.757874015748037 ], [ 17.594488188976463, 7.927165354330713 ], [ 17.35460622058649, 7.892826071953493 ], [ 17.29527559055127, 8.057086614173231 ] ] ] ] } },
{ "type": "Feature", "properties": { "id": 5, "type": "forest", "size": 1, "name_fr": null }, "geometry": { "type": "MultiPolygon", "coordinates": [ [ [ [ 14.043307086614281, 8.923228346456698 ], [ 14.137795275590655, 8.812992125984257 ], [ 13.937007874015853, 8.805118110236226 ], [ 13.881889763779633, 8.982283464566933 ], [ 13.992125984252073, 9.120078740157485 ], [ 14.188976377952859, 9.064960629921265 ], [ 14.043307086614281, 8.923228346456698 ] ] ] ] } },
{ "type": "Feature", "properties": { "id": 6, "type": "forest", "size": 1, "name_fr": "Bois-aux-Murmures" }, "geometry": { "type": "MultiPolygon", "coordinates": [ [ [ [ 12.968503937007986, 9.714566929133857 ], [ 13.086614173228458, 9.864173228346456 ], [ 13.318897637795386, 10.332677165354326 ], [ 13.456692913385936, 10.494094488188971 ], [ 13.614173228346566, 10.285433070866137 ], [ 13.393700787401684, 9.915354330708659 ], [ 13.374015748031606, 9.746062992125983 ], [ 13.118110236220584, 9.557086614173228 ], [ 12.968503937007986, 9.714566929133857 ] ] ] ] } },
{ "type": "Feature", "properties": { "id": 7, "type": "forest", "size": 2, "name_fr": null }, "geometry": { "type": "MultiPolygon", "coordinates": [ [ [ [ 22.503937007874082, 15.903543307086576 ], [ 22.566929133858334, 15.706692913385789 ], [ 22.220472440944953, 15.344488188976342 ], [ 22.023622047244164, 15.155511811023587 ], [ 21.763779527559127, 14.832677165354298 ], [ 20.818897637795352, 14.147637795275561 ], [ 20.716535433070941, 14.533464566929101 ], [ 20.165354330708741, 15.234251968503902 ], [ 20.653543307086689, 15.494094488188939 ], [ 20.952755905511886, 16.068897637795235 ], [ 21.409448818897712, 16.108267716535394 ], [ 21.62204724409456, 16.438976377952713 ], [ 21.976377952755975, 16.486220472440902 ], [ 22.102362204724479, 16.383858267716494 ], [ 21.858267716535504, 15.769685039370041 ], [ 22.503937007874082, 15.903543307086576 ] ] ] ] } },
{ "type": "Feature", "properties": { "id": 8, "type": "forest", "size": 2, "name_fr": null }, "geometry": { "type": "MultiPolygon", "coordinates": [ [ [ [ 11.19685039370091, 19.564960629921217 ], [ 12.535433070866258, 19.549212598425154 ], [ 12.535433070866258, 19.171259842519646 ], [ 12.220472440945001, 18.998031496062953 ], [ 12.425196850393817, 18.541338582677128 ], [ 11.763779527559176, 17.73818897637792 ], [ 12.188976377952875, 17.045275590551149 ], [ 11.937007874015869, 16.399606299212572 ], [ 12.236220472441063, 15.454724409448794 ], [ 12.330708661417441, 14.478346456692893 ], [ 11.795275590551302, 14.557086614173208 ], [ 11.417322834645791, 14.982283464566908 ], [ 11.399664980240988, 15.029680863232432 ], [ 11.399664980240988, 15.032114613192945 ], [ 11.398436128144784, 15.032979360964347 ], [ 11.118110236220597, 15.785433070866116 ], [ 10.755905511811148, 16.131889763779501 ], [ 10.992125984252093, 16.588582677165327 ], [ 10.661417322834771, 17.013779527559024 ], [ 10.346456692913513, 17.517716535433038 ], [ 10.740157480315085, 18.100393700787365 ], [ 10.283464566929261, 18.635826771653505 ], [ 10.692913385826897, 18.651574803149568 ], [ 10.834645669291463, 19.360236220472398 ], [ 11.19685039370091, 19.564960629921217 ] ] ] ] } },
{ "type": "Feature", "properties": { "id": 9, "type": "forest", "size": 3, "name_fr": "Bois-aux-Loups" }, "geometry": { "type": "MultiPolygon", "coordinates": [ [ [ [ 10.700787401574926, 30.053149606299126 ], [ 11.096792196627572, 29.875630215413455 ], [ 11.119329474193373, 29.857190624677802 ], [ 11.137926668268648, 29.857190624677802 ], [ 11.148327685098661, 29.852528099891934 ], [ 11.175396575402898, 29.721695130088118 ], [ 11.236135935046548, 29.726367388522245 ], [ 11.275278272301549, 29.795619215973399 ], [ 11.614173228346576, 29.643700787401489 ], [ 13.661417322834756, 30.053149606299126 ], [ 15.386280078854762, 29.677017583345322 ], [ 17.440944881889859, 31.816929133858174 ], [ 18.417322834645759, 31.659448818897545 ], [ 19.078740157480404, 32.667322834645574 ], [ 19.677165354330796, 32.635826771653448 ], [ 19.740157480315048, 32.289370078740063 ], [ 18.984251968504026, 31.722440944881797 ], [ 19.204724409448907, 31.25 ], [ 18.354330708661507, 30.273622047244007 ], [ 17.707348376111721, 30.433399059675185 ], [ 17.354606220586483, 30.401966590370954 ], [ 17.054251513901626, 29.371680096510108 ], [ 17.251968503937107, 28.446850393700707 ], [ 16.716535433070966, 27.564960629921181 ], [ 14.669291338582784, 27.438976377952677 ], [ 14.480314960630029, 26.399606299212529 ], [ 13.755905511811134, 26.273622047244025 ], [ 13.503937007874129, 25.612204724409381 ], [ 12.590551181102477, 25.76968503937001 ], [ 11.551181102362325, 25.517716535433003 ], [ 10.732283464567052, 25.738188976377884 ], [ 10.070866141732409, 26.368110236220403 ], [ 10.259842519685163, 27.722440944881811 ], [ 9.377952755905639, 27.375984251968429 ], [ 9.157480314960759, 28.320866141732203 ], [ 10.700787401574926, 29.612204724409363 ], [ 10.700787401574926, 30.053149606299126 ] ] ] ] } },
{ "type": "Feature", "properties": { "id": 10, "type": "forest", "size": 2, "name_fr": "Le Bois aux Cornes" }, "geometry": { "type": "MultiPolygon", "coordinates": [ [ [ [ 18.984251968504026, 26.352362204724344 ], [ 20.070866141732367, 25.297244094488125 ], [ 20.007874015748115, 24.872047244094425 ], [ 19.764130241721208, 24.598711394420238 ], [ 19.472440944881978, 24.998031496062929 ], [ 18.921259842519774, 24.95078740157474 ], [ 19.125984251968593, 24.50984251968498 ], [ 18.874015748031585, 24.336614173228284 ], [ 18.029667701004595, 25.040665791814376 ], [ 18.307086614173318, 26.053149606299147 ], [ 18.984251968504026, 26.352362204724344 ] ] ] ] } },
{ "type": "Feature", "properties": { "id": 11, "type": "forest", "size": 2, "name_fr": null }, "geometry": { "type": "MultiPolygon", "coordinates": [ [ [ [ 21.724409448818975, 31.438976377952667 ], [ 22.968503937007945, 31.423228346456604 ], [ 23.173228346456764, 31.108267716535345 ], [ 23.62992125984259, 31.155511811023533 ], [ 23.535433070866212, 30.58858267716527 ], [ 24.102362204724479, 31.328740157480226 ], [ 24.330251877925043, 31.438464814947164 ], [ 24.399056008590744, 31.450430750715114 ], [ 24.536126416814767, 31.51896595482712 ], [ 24.937007874015812, 30.840551181102278 ], [ 24.826771653543375, 30.431102362204641 ], [ 25.062992125984316, 30.021653543307004 ], [ 24.858267716535501, 29.675196850393618 ], [ 24.385826771653612, 29.627952755905429 ], [ 24.448818897637864, 29.108267716535352 ], [ 24.010644899701571, 28.603401948166148 ], [ 23.677165354330779, 29.202755905511729 ], [ 23.62992125984259, 27.612204724409374 ], [ 22.984251968504012, 27.281496062992051 ], [ 22.669291338582752, 27.564960629921185 ], [ 22.62204724409456, 27.816929133858192 ], [ 22.275590551181178, 27.549212598425122 ], [ 21.818897637795352, 27.816929133858192 ], [ 21.850393700787478, 28.651574803149529 ], [ 22.007874015748108, 29.25 ], [ 22.653543307086686, 28.840551181102285 ], [ 22.874015748031567, 29.029527559055037 ], [ 22.480314960629997, 29.533464566929052 ], [ 22.480314960629997, 30.100393700787318 ], [ 22.165354330708738, 30.273622047244011 ], [ 22.259842519685115, 30.604330708661333 ], [ 22.039370078740234, 31.061023622047156 ], [ 21.519685039370156, 31.092519685039282 ], [ 21.724409448818975, 31.438976377952667 ] ] ] ] } },
{ "type": "Feature", "properties": { "id": 12, "type": "forest", "size": 3, "name_fr": "Forêt Hantée" }, "geometry": { "type": "MultiPolygon", "coordinates": [ [ [ [ 16.732283464567018, 35.375984251968404 ], [ 16.921259842519767, 36.100393700787301 ], [ 14.937007874015841, 38.494094488188864 ], [ 15.062992125984342, 39.21850393700776 ], [ 13.519685039370174, 40.541338582677049 ], [ 12.732283464567029, 41.549212598425079 ], [ 13.141732283464664, 42.809055118110109 ], [ 14.077334733546914, 42.899865635391407 ], [ 14.433070866141826, 42.462598425196724 ], [ 15.125984251968594, 43.061023622047117 ], [ 15.913385826771741, 42.998031496062865 ], [ 15.566929133858357, 42.053149606299087 ], [ 15.472440944881983, 40.856299212598302 ], [ 15.992125984252059, 39.753937007873901 ], [ 16.448818897637885, 38.998031496062879 ], [ 17.031496062992215, 38.730314960629805 ], [ 17.740157480315048, 38.336614173228234 ], [ 18.858267716535515, 38.037401574803042 ], [ 19.488188976378034, 36.856299212598316 ], [ 19.800168868326438, 36.973291672078965 ], [ 19.890326619658225, 36.949678927682548 ], [ 20.030494372682035, 36.930989893946041 ], [ 20.08656147389156, 37.001073770457943 ], [ 20.212712451612987, 37.024435062628577 ], [ 20.34353568776854, 36.982384736721436 ], [ 20.446325373319336, 37.094518939140485 ], [ 20.522887279488902, 37.164955892816486 ], [ 20.874015748031571, 36.257874015747923 ], [ 20.307086614173304, 35.092519685039271 ], [ 16.732283464567018, 35.375984251968404 ] ] ] ] } },
{ "type": "Feature", "properties": { "id": 13, "type": "forest", "size": 4, "name_fr": "Forêt de Qohor" }, "geometry": { "type": "MultiPolygon", "coordinates": [ [ [ [ 44.984251968503926, 9.486220472440948 ], [ 45.006009500610467, 9.52973553665403 ], [ 45.105337324032874, 9.532282403921272 ], [ 45.25952185235905, 9.686466932247477 ], [ 45.35763927947572, 9.8126179099689 ], [ 45.352967021041593, 9.934096629256203 ], [ 45.343622504173339, 10.130331483489535 ], [ 45.465101223460643, 10.284516011815725 ], [ 45.529667452568766, 10.374347287096597 ], [ 47.496421128118229, 10.491765416980147 ], [ 47.525567192910628, 10.466734090746677 ], [ 47.661062687500319, 10.410666989537155 ], [ 47.913364642943172, 10.359272146761761 ], [ 48.006809811625708, 10.270499236513345 ], [ 48.399279520092378, 10.041558573241119 ], [ 48.70297631831064, 10.233121169040331 ], [ 49.00200085809476, 10.167709550962556 ], [ 49.141148679933835, 10.165428439129128 ], [ 49.362204724409423, 9.39173228346457 ], [ 50.998061628299659, 9.452015328180559 ], [ 51.025088760071739, 9.42949271837049 ], [ 51.047079482236448, 9.412051800791582 ], [ 51.755905511810994, 6.620078740157494 ], [ 54.401574803149565, 6.872047244094501 ], [ 56.669291338582624, 4.982283464566949 ], [ 56.706931544652761, 2.949199993768723 ], [ 52.574803149606261, 0.69881889763783 ], [ 50.559055118110209, 2.84055118110239 ], [ 47.377952755905497, 2.462598425196878 ], [ 46.212598425196838, 0.226377952755941 ], [ 44.665758906216283, 0.91454201331269 ], [ 44.448818897637786, 3.816929133858292 ], [ 44.858267716535423, 4.446850393700808 ], [ 44.196850393700785, 4.82480314960632 ], [ 44.365563466476871, 7.352066443280115 ], [ 45.015748031496052, 8.100393700787411 ], [ 42.370078740157481, 8.320866141732292 ], [ 42.364260534880778, 8.686268397677516 ], [ 41.630449459962215, 8.752978495397379 ], [ 42.055118110236222, 9.612204724409452 ], [ 43.661417322834644, 9.517716535433074 ], [ 44.291338582677156, 9.864173228346459 ], [ 44.984251968503926, 9.486220472440948 ] ] ] ] } },
{ "type": "Feature", "properties": { "id": 14, "type": "forest", "size": 5, "name_fr": null }, "geometry": { "type": "MultiPolygon", "coordinates": [ [ [ [ 91.881889763779327, -41.789370078739978 ], [ 58.436641192759694, -41.926778659557641 ], [ 53.582158144345406, -41.915873351717345 ], [ 54.02183705420191, -41.476194441860841 ], [ 54.03139504628038, -41.472718808377763 ], [ 54.043994217656547, -41.454037278406204 ], [ 54.451150487238593, -41.046881008824158 ], [ 54.615427350546241, -40.99614844809679 ], [ 54.755595103570052, -40.86532521194124 ], [ 54.853712530686721, -40.767207784824564 ], [ 54.914451890330369, -40.584989705893619 ], [ 55.176098362641468, -40.393427110094422 ], [ 55.391022250611314, -40.257931615504745 ], [ 55.512500969898618, -40.08505805344204 ], [ 55.519873379326611, -39.97815811673614 ], [ 55.760462135370155, -39.737569360692596 ], [ 55.858248094024013, -39.683243828107123 ], [ 55.923659712101788, -39.580454142556334 ], [ 55.925448641100424, -39.572582854962327 ], [ 57.897637795275514, -37.600393700787237 ], [ 57.960629921259766, -37.096456692913222 ], [ 58.338582677165277, -36.749999999999844 ], [ 58.294037819124654, -36.598547482661729 ], [ 58.301839255072402, -36.580864227846831 ], [ 58.276334560627845, -36.538356403772568 ], [ 57.866141732283388, -35.143700787401421 ], [ 58.842519685039292, -33.946850393700636 ], [ 58.834904931396217, -33.828750324481113 ], [ 58.918577368377157, -33.707425290858737 ], [ 58.941938660547798, -33.585946571571441 ], [ 58.899888334640657, -33.422417526376989 ], [ 58.946610918981925, -33.296266548655566 ], [ 59.082106413571601, -33.123392986592876 ], [ 59.231618683463665, -33.142082020329383 ], [ 59.315719335277954, -33.100031694422228 ], [ 59.375871299798845, -33.104180105768499 ], [ 59.724409448818811, -33.568897637795125 ], [ 59.629921259842433, -33.852362204724258 ], [ 59.662696185300589, -34.136411558694959 ], [ 59.633432908798575, -34.268096302953978 ], [ 59.687195672604595, -34.348740448663015 ], [ 59.724409448818811, -34.671259842519532 ], [ 59.853630463379005, -34.740840388821177 ], [ 59.867045830504935, -34.782044730707952 ], [ 60.002541325094612, -34.912867966863502 ], [ 60.152053594986675, -35.025002169282544 ], [ 60.371649741390641, -35.151153147003967 ], [ 60.549195561887473, -35.169842180740488 ], [ 60.751318439485082, -35.131705788740952 ], [ 61.551181102362115, -35.206692913385673 ], [ 61.89721071932734, -34.900899298393149 ], [ 62.095713103583492, -34.847456348785727 ], [ 62.235880856607302, -34.665238269854783 ], [ 62.291947957816831, -34.55310406743574 ], [ 62.483510553616036, -34.506381483094472 ], [ 62.642367340376353, -34.380230505373035 ], [ 62.815240902439044, -34.202684684876203 ], [ 62.897207586523614, -34.017181136684812 ], [ 62.90551181102353, -34.009842519684888 ], [ 63.084190963289565, -32.84842802995562 ], [ 63.160988026564446, -32.78699037933572 ], [ 63.170332543432707, -32.651494884746029 ], [ 63.249760936812862, -32.515999390156352 ], [ 63.31050029645651, -32.436570996776197 ], [ 63.394600948270799, -32.361814861830155 ], [ 63.417962240441433, -32.221647108806351 ], [ 63.497390633821588, -32.156235490728577 ], [ 63.572146768767617, -32.030084513007154 ], [ 63.525424184426349, -31.843194175642068 ], [ 63.642230645279525, -31.689009647315885 ], [ 63.740348072396195, -31.562858669594448 ], [ 63.899204859156505, -31.478758017780166 ], [ 64.016011320009682, -31.361951556926996 ], [ 64.053238024717814, -31.274202895829252 ], [ 64.295772709361771, -31.067599275576995 ], [ 64.34306941039857, -31.067599275576995 ], [ 64.500141795236274, -31.067599275576995 ], [ 65.551181102362094, -31.427165354330569 ], [ 67.566929133858153, -32.340551181102214 ], [ 70.673080704927429, -32.868596948183992 ], [ 70.790164974592898, -32.969248337896417 ], [ 71.661417322834524, -34.07283464566914 ], [ 72.466365130287798, -34.416520226379525 ], [ 72.636328130973922, -34.548431809001599 ], [ 72.841907502075514, -34.693271820459529 ], [ 73.010108805704078, -34.782044730707952 ], [ 73.220360435239783, -34.786716989142064 ], [ 73.351888000998827, -34.794608643087606 ], [ 73.755646538302045, -34.966999928677744 ], [ 73.869804357583433, -35.090413787360319 ], [ 74.014644369041378, -35.169842180740488 ], [ 74.203625628040427, -35.158271899577279 ], [ 74.464566929133724, -35.269685039369925 ], [ 76.845435214555934, -35.969276668261756 ], [ 76.925461373502472, -36.010848698883336 ], [ 77.299242048232614, -36.104293867565872 ], [ 77.301863040494368, -36.103392901475893 ], [ 79.91484794789379, -36.871189414550607 ], [ 80.093252591840553, -36.931283610406354 ], [ 80.111454268357448, -36.928959992127602 ], [ 81.110236220472288, -37.222440944881725 ], [ 82.149606299212437, -37.253937007873851 ], [ 82.408700330093467, -37.039514361627482 ], [ 82.578894078796083, -37.001367486918269 ], [ 82.686356022780998, -36.889233284499227 ], [ 82.699861543880971, -36.79855335711369 ], [ 83.062992125984096, -36.498031496062836 ], [ 83.818897637795118, -35.994094488188821 ], [ 86.370078740157311, -36.057086614173073 ], [ 89.267716535432896, -38.167322834645503 ], [ 90.842519685039179, -39.395669291338415 ], [ 91.093145107967828, -39.816073226573558 ], [ 91.110714148672884, -39.928841241495135 ], [ 91.269294766272239, -40.211209031163506 ], [ 91.437496069900789, -40.491544537211098 ], [ 91.569241021314198, -40.699134923420729 ], [ 91.671108991607142, -40.912047796282536 ], [ 91.708487059080184, -41.098938133647621 ], [ 91.833264893493563, -41.205871635310636 ], [ 91.881889763779327, -41.789370078739978 ] ] ] ] } },
{ "type": "Feature", "properties": { "id": 15, "type": "mountain", "size": 2, "name_fr": null }, "geometry": { "type": "MultiPolygon", "coordinates": [ [ [ [ 20.38669562856369, -8.038666847678432 ], [ 21.468074938908515, -7.310390985609468 ], [ 22.726005973391267, -7.597287537333605 ], [ 24.039109421667124, -7.133839261471538 ], [ 24.800488732011949, -7.486942709747398 ], [ 23.774281835460229, -8.51314960629912 ], [ 21.876350800977477, -8.149011675264637 ], [ 20.38669562856369, -8.038666847678432 ] ] ] ] } },
{ "type": "Feature", "properties": { "id": 16, "type": "mountain", "size": 2, "name_fr": null }, "geometry": { "type": "MultiPolygon", "coordinates": [ [ [ [ 20.717730111322311, -8.711770295954288 ], [ 19.360488732011969, -9.053839261471529 ], [ 20.309454249253346, -9.197287537333597 ], [ 21.05979907683955, -9.473149606299113 ], [ 19.54807493890852, -10.035908226988767 ], [ 17.484626663046459, -9.384873744230148 ], [ 17.528764594080943, -8.932459951126702 ], [ 18.488764594080941, -8.73383926147153 ], [ 18.466695628563699, -8.071770295954291 ], [ 19.636350800977489, -8.645563399402565 ], [ 20.717730111322311, -8.711770295954288 ] ] ] ] } },
{ "type": "Feature", "properties": { "id": 17, "type": "mountain", "size": 4, "name_fr": null }, "geometry": { "type": "MultiPolygon", "coordinates": [ [ [ [ 11.967385283736128, -10.830390985609453 ], [ 11.217040456149924, -10.499356502850832 ], [ 11.194971490632682, -9.351770295954285 ], [ 11.459799076839577, -8.204184089057737 ], [ 12.364626663046471, -7.23314960629912 ], [ 12.430833559598195, -6.085563399402572 ], [ 11.967385283736128, -6.217977192506019 ], [ 11.393592180287854, -7.343494433885326 ], [ 11.084626663046475, -8.182115123540497 ], [ 10.003247352701653, -8.711770295954286 ], [ 9.517730111322344, -8.469011675264634 ], [ 9.981178387184411, -6.990390985609466 ], [ 9.451523214770619, -6.195908226988779 ], [ 9.539799076839584, -5.511770295954298 ], [ 10.81979907683958, -4.518666847678439 ], [ 13.092902525115434, -3.349011675264651 ], [ 13.821178387184396, -3.32694270974741 ], [ 13.975661145805086, -4.386253054574992 ], [ 14.350833559598188, -3.65797719250603 ], [ 14.814281835460255, -2.620735813195688 ], [ 15.895661145805079, -2.863494433885342 ], [ 17.28600597339128, -2.024873744230173 ], [ 17.992212869943003, -0.546253054575006 ], [ 19.294281835460239, 0.071677979907751 ], [ 20.309454249253339, 0.248229704045681 ], [ 21.748755648887336, 0.295388918850236 ], [ 21.898419766494712, 0.822022807493955 ], [ 22.361868042356779, 0.799953841976714 ], [ 22.538419766494712, 0.424781428183612 ], [ 21.766005973391266, -0.060735813195697 ], [ 21.479109421667133, -0.61245995112673 ], [ 21.302557697529199, -1.252459951126727 ], [ 22.052902525115407, -1.914528916643967 ], [ 22.114173228346502, -2.490157480314903 ], [ 21.037730111322304, -2.686942709747412 ], [ 20.397730111322307, -2.15728753733362 ], [ 20.375661145805065, -0.833149606299143 ], [ 19.603247352701622, -1.451080640781899 ], [ 19.846005973391271, -2.466253054574999 ], [ 19.448764594080931, -3.702115123540512 ], [ 17.219799076839557, -3.900735813195684 ], [ 16.491523214770595, -4.320046158023269 ], [ 16.292902525115423, -4.783494433885336 ], [ 17.70531631821887, -4.452459951126716 ], [ 16.910833559598181, -5.886942709747401 ], [ 15.608764594080943, -6.173839261471538 ], [ 15.476350800977496, -6.769701330437053 ], [ 17.374281835460248, -6.902115123540501 ], [ 16.800488732011974, -8.424873744230151 ], [ 13.821178387184398, -8.469011675264634 ], [ 11.967385283736128, -10.830390985609453 ] ] ] ] } },
{ "type": "Feature", "properties": { "id": 18, "type": "mountain", "size": 3, "name_fr": null }, "geometry": { "type": "MultiPolygon", "coordinates": [ [ [ [ 9.473592180287852, 1.925471083356022 ], [ 8.392212869943029, 2.940643497149122 ], [ 7.884626663046479, 4.022022807493945 ], [ 9.186695628563715, 5.346160738528424 ], [ 8.436350800977511, 5.412367635080148 ], [ 8.259799076839581, 6.250988324735317 ], [ 7.575661145805101, 6.074436600597387 ], [ 7.06807493890855, 6.405471083356007 ], [ 8.105316318218891, 6.913057290252556 ], [ 8.011101537649518, 7.242809022245364 ], [ 8.026294390801324, 7.252804320371553 ], [ 8.068344716708467, 7.29952690471282 ], [ 8.035638907669577, 7.346249489054088 ], [ 7.984297548515968, 7.336622984212787 ], [ 7.928764594080961, 7.530988324735313 ], [ 8.259799076839581, 8.14891935921807 ], [ 8.988074938908543, 9.804091773011166 ], [ 8.568764594080958, 10.223402117838752 ], [ 8.701178387184406, 10.510298669562889 ], [ 9.495661145805094, 10.311677979907717 ], [ 11.051882900401818, 10.644074859530319 ], [ 11.05859011454972, 10.644863943547719 ], [ 11.208102384441784, 10.55609103329931 ], [ 11.25949722721718, 10.598141359206451 ], [ 11.348557151428114, 10.707442175283509 ], [ 11.768764594080947, 10.797195221287026 ], [ 12.928429915988236, 11.629851459566787 ], [ 13.754971490632665, 11.106160738528404 ], [ 13.499635127714619, 10.299818886276881 ], [ 12.695661145805083, 9.914436600597373 ], [ 10.577040456149918, 9.119953841976686 ], [ 10.246005973391298, 8.788919359218067 ], [ 12.298419766494739, 8.965471083355997 ], [ 11.30531631821888, 7.751677979907726 ], [ 11.349454249253363, 7.442712462666347 ], [ 11.592212869943017, 6.427540048873248 ], [ 13.49014390442577, 6.780643497149109 ], [ 13.423937007874045, 5.191677979907735 ], [ 13.578419766494735, 4.860643497149116 ], [ 12.077730111322326, 4.44133315232153 ], [ 12.519109421667151, 4.08822970404567 ], [ 12.563247352701634, 3.558574531631878 ], [ 11.6363508009775, 3.602712462666361 ], [ 12.033592180287844, 2.631677979907744 ], [ 10.223937007874056, 2.918574531631881 ], [ 9.473592180287852, 1.925471083356022 ] ] ] ] } },
{ "type": "Feature", "properties": { "id": 19, "type": "mountain", "size": 4, "name_fr": null }, "geometry": { "type": "MultiPolygon", "coordinates": [ [ [ [ 25.054281835460213, 13.997195221287011 ], [ 24.568764594080903, 13.599953841976669 ], [ 24.921868042356763, 13.401333152321497 ], [ 24.153476858345243, 13.000994888382721 ], [ 24.028779527686176, 13.027715744952516 ], [ 23.893284033096492, 12.980993160611249 ], [ 23.867483377260434, 12.851989881430972 ], [ 22.295661145805049, 12.033057290252536 ], [ 22.662017140090391, 11.966447109473384 ], [ 22.562091901238318, 11.922822310046591 ], [ 22.68560568943483, 11.96215828231985 ], [ 23.509454249253324, 11.812367635080124 ], [ 22.361868042356775, 11.326850393700814 ], [ 22.891523214770565, 10.7309883247353 ], [ 21.986695628563673, 9.693746945424959 ], [ 19.647385283736092, 9.406850393700822 ], [ 18.257040456149891, 10.068919359218061 ], [ 15.961868042356796, 11.966850393700813 ], [ 15.410143904425764, 13.953057290252531 ], [ 15.674971490632659, 15.166850393700802 ], [ 16.668074938908518, 15.917195221287006 ], [ 17.286005973391276, 16.027540048873213 ], [ 17.454219383281316, 16.104827291255123 ], [ 17.547189014943541, 16.083372760871534 ], [ 17.663995475796717, 16.069355985569153 ], [ 17.715390318572112, 16.139439862081055 ], [ 17.672653450588772, 16.205188889747738 ], [ 18.102557697529203, 16.402712462666315 ], [ 18.165455079370275, 16.419934364837086 ], [ 18.252700038496716, 16.368380525353274 ], [ 18.383523274652269, 16.373052783787408 ], [ 18.425573600559414, 16.429119884996929 ], [ 18.450993806871232, 16.4981175878433 ], [ 19.956350800977471, 16.910298669562863 ], [ 20.905316318218848, 16.976505566114589 ], [ 22.008764594080915, 16.954436600597347 ], [ 21.346695628563673, 16.402712462666315 ], [ 20.530143904425746, 15.674436600597351 ], [ 21.523247352701603, 14.879953841976665 ], [ 21.037730111322297, 14.173746945424941 ], [ 22.185316318218845, 14.548919359218045 ], [ 23.168657444830401, 15.163507563350269 ], [ 23.20551646716816, 15.160156743137748 ], [ 23.305747535005025, 15.197979787604488 ], [ 23.332890936205906, 15.216592405570808 ], [ 24.63497149063263, 15.299264186804249 ], [ 23.950833559598145, 14.526850393700803 ], [ 22.450143904425737, 13.798574531631839 ], [ 20.839109421667125, 12.78340211783874 ], [ 20.486005973391265, 12.275815910942191 ], [ 20.971523214770571, 12.297884876459431 ], [ 22.251523214770565, 13.379264186804257 ], [ 24.127385283736078, 14.239953841976668 ], [ 25.054281835460213, 13.997195221287011 ] ] ] ] } },
{ "type": "Feature", "properties": { "id": 20, "type": "mountain", "size": 3, "name_fr": null }, "geometry": { "type": "MultiPolygon", "coordinates": [ [ [ [ 5.942557697529238, 23.597195221286981 ], [ 6.040612326411661, 25.092783055658014 ], [ 7.443247352701646, 25.649609014390421 ], [ 8.083247352701644, 26.753057290252485 ], [ 10.460521368529204, 28.693665079658818 ], [ 12.919795905833388, 29.953856693175219 ], [ 13.909454249253349, 31.497884876459366 ], [ 13.371118312372573, 32.724473583892411 ], [ 13.427425140652094, 32.735301820100013 ], [ 13.492836758729872, 32.833419247216682 ], [ 13.492836758729872, 32.843747534352659 ], [ 14.970932394895737, 33.381339397137026 ], [ 15.186372206009667, 34.204056960917256 ], [ 15.193538828752084, 34.21173548528413 ], [ 15.191020630494203, 34.221808278315656 ], [ 15.258562170491455, 34.479734661342043 ], [ 17.237098405431844, 34.995560807633865 ], [ 18.168764594080926, 32.79995384197661 ], [ 16.204626663046444, 30.857884876459373 ], [ 14.902557697529208, 27.525471083355935 ], [ 13.181178387184385, 25.517195221286975 ], [ 13.181178387184385, 24.237195221286978 ], [ 13.048764594080938, 23.222022807493879 ], [ 10.488764594080946, 21.897884876459401 ], [ 10.003247352701637, 23.707540048873188 ], [ 8.171523214770609, 23.442712462666293 ], [ 5.942557697529238, 23.597195221286981 ] ] ] ] } },
{ "type": "Feature", "properties": { "id": 21, "type": "mountain", "size": 2, "name_fr": "Tribus des Colines" }, "geometry": { "type": "MultiPolygon", "coordinates": [ [ [ [ 18.014281835460231, 30.107540048873169 ], [ 19.250143904425748, 30.659264186804201 ], [ 20.000488732011952, 29.908919359217997 ], [ 20.927385283736086, 29.644091773011098 ], [ 21.015661145805051, 28.342022807493862 ], [ 19.956350800977468, 28.010988324735244 ], [ 19.492902525115401, 27.26064349714904 ], [ 18.257040456149888, 27.370988324735244 ], [ 17.109454249253339, 27.635815910942142 ], [ 17.445411131909815, 29.169115294327298 ], [ 18.014281835460231, 30.107540048873169 ] ] ] ] } },
{ "type": "Feature", "properties": { "id": 22, "type": "mountain", "size": 4, "name_fr": null }, "geometry": { "type": "MultiPolygon", "coordinates": [ [ [ [ 16.557730111322307, 35.470298669562801 ], [ 14.858419766494727, 34.366850393700737 ], [ 13.666695628563696, 34.565471083355909 ], [ 13.423937007874041, 35.315815910942113 ], [ 13.723859271191781, 35.454241570934911 ], [ 13.777844523211616, 35.421850419723015 ], [ 13.918012276235425, 35.426522678157141 ], [ 13.974079377444948, 35.445211711893648 ], [ 13.983276586564582, 35.57397263956851 ], [ 13.997730111322316, 35.580643497149005 ], [ 12.077730111322323, 38.184781428183484 ], [ 9.870833559598193, 38.604091773011064 ], [ 11.018419766494741, 40.303402117838644 ], [ 9.319109421667159, 42.576505566114498 ], [ 8.546695628563713, 46.041333152321386 ], [ 8.767385283736127, 47.14478142818345 ], [ 11.415661145805084, 46.902022807493793 ], [ 12.71773011132232, 45.423402117838627 ], [ 11.371523214770599, 43.415126255769671 ], [ 14.063937007874038, 41.362712462666224 ], [ 16.204626663046447, 36.772367635080037 ], [ 16.557730111322307, 35.470298669562801 ] ] ] ] } },
{ "type": "Feature", "properties": { "id": 23, "type": "mountain", "size": 4, "name_fr": null }, "geometry": { "type": "MultiPolygon", "coordinates": [ [ [ [ 43.150833559598084, 13.555815910942192 ], [ 43.288166186849573, 13.19875108008832 ], [ 43.292501051591614, 13.162627207237925 ], [ 43.305496201667992, 13.153693041560414 ], [ 43.371523214770491, 12.982022807493918 ], [ 43.7466956285636, 12.783402117838746 ], [ 43.592212869942912, 12.033057290252541 ], [ 43.509951264638232, 12.146957974520559 ], [ 43.502752681127333, 12.17678067763714 ], [ 43.489698304067502, 12.175000535310799 ], [ 43.305316318218772, 12.430298669562886 ], [ 43.04048873201188, 11.32685039370082 ], [ 43.28324735270153, 11.017884876459442 ], [ 43.150833559598084, 10.466160738528409 ], [ 43.798357983622864, 10.288091521921594 ], [ 43.913911423330489, 10.219104393737936 ], [ 44.18236959317732, 10.058684267853859 ], [ 44.391262420697196, 9.827410065956853 ], [ 44.399826300479702, 9.812617909968885 ], [ 44.407370822454439, 9.809575764011329 ], [ 44.651523214770492, 9.539264186804274 ], [ 43.702557697529116, 9.053746945424965 ], [ 42.599109421667052, 9.450988324735309 ], [ 42.201868042356708, 9.892367635080136 ], [ 41.495661145804988, 9.29650556611462 ], [ 41.385316318218777, 8.634436600597381 ], [ 41.672212869942911, 7.729609014390489 ], [ 40.789454249253261, 7.155815910942215 ], [ 40.348074938908439, 7.884091773011177 ], [ 39.465316318218782, 8.855126255769795 ], [ 38.229454249253273, 10.068919359218066 ], [ 38.163247352701546, 9.075815910942207 ], [ 38.979799076839477, 7.222022807493937 ], [ 38.538419766494648, 6.030298669562908 ], [ 37.03773011132224, 7.133746945424972 ], [ 35.80186804235673, 9.031677979907725 ], [ 34.588074938908456, 9.671677979907722 ], [ 33.506695628563634, 10.929609014390477 ], [ 32.646005973391226, 11.966850393700817 ], [ 32.094281835460194, 11.988919359218059 ], [ 32.5797990768395, 10.929609014390477 ], [ 32.204626663046398, 10.753057290252546 ], [ 31.520488732011916, 10.64271246266634 ], [ 31.277730111322263, 10.466160738528409 ], [ 30.74807493890847, 10.907540048873235 ], [ 30.9246266630464, 11.547540048873234 ], [ 30.902557697529161, 12.297884876459438 ], [ 31.189454249253295, 13.423402117838744 ], [ 31.674971490632608, 13.313057290252537 ], [ 31.91773011132226, 13.953057290252534 ], [ 32.690143904425703, 13.224781428183572 ], [ 33.705316318218806, 13.158574531631849 ], [ 33.661178387184322, 13.622022807493916 ], [ 32.535661145805015, 14.835815910942188 ], [ 31.961868042356741, 15.38754004887322 ], [ 32.447385283736054, 15.497884876459427 ], [ 34.014427893625715, 14.783789509927425 ], [ 34.013395801415498, 14.765211850143473 ], [ 34.052513018442305, 14.76643426317556 ], [ 34.190833559598111, 14.703402117838738 ], [ 34.610143904425698, 13.445471083355985 ], [ 34.786695628563628, 11.922712462666336 ], [ 34.814999557218108, 11.886321697253429 ], [ 34.803007476782945, 11.826361295077611 ], [ 34.863746836426593, 11.737588384829202 ], [ 34.947847488240882, 11.658159991449047 ], [ 35.006653126025462, 11.639909965929697 ], [ 35.250143904425698, 11.32685039370082 ], [ 35.934281835460176, 11.67995384197668 ], [ 36.817040456149826, 11.900643497149094 ], [ 37.611523214770514, 12.319953841976679 ], [ 37.3908335595981, 13.423402117838744 ], [ 37.743937007873967, 13.246850393700814 ], [ 38.000200343455148, 13.31091622759611 ], [ 38.129655481881329, 13.321483993998243 ], [ 38.185542708046491, 13.357251818743945 ], [ 38.538419766494648, 13.445471083355985 ], [ 38.93457984475647, 13.665560015723665 ], [ 38.961317483155923, 13.667231118123631 ], [ 39.024349376804601, 13.715431977972624 ], [ 39.531523214770509, 13.997195221287019 ], [ 40.017040456149815, 13.997195221287019 ], [ 40.687900374669702, 13.218132090102635 ], [ 40.690053103782915, 13.204677533145066 ], [ 40.705634706984505, 13.189095929943473 ], [ 41.098419766494644, 11.988919359218059 ], [ 42.223937007873943, 11.437195221287027 ], [ 42.621178387184287, 11.966850393700817 ], [ 42.523317479525815, 12.199270049389703 ], [ 42.507561634658288, 12.274898104753802 ], [ 42.490580335189968, 12.277020767187343 ], [ 42.444626663046364, 12.386160738528403 ], [ 42.552198201347075, 12.708875353430534 ], [ 42.554284218999555, 12.714090397561741 ], [ 42.554150499919267, 12.71473224914712 ], [ 42.57704045614981, 12.783402117838746 ], [ 42.75359218028774, 12.959953841976677 ], [ 42.77762650852322, 12.996005334329903 ], [ 42.787897140705901, 12.989753645175227 ], [ 42.900031343124951, 13.013114937345861 ], [ 42.979459736505106, 13.125249139764911 ], [ 43.016837803978127, 13.260744634354587 ], [ 43.006267282275019, 13.338966494957594 ], [ 43.150833559598084, 13.555815910942192 ] ] ] ] } },
{ "type": "Feature", "properties": { "id": 24, "type": "mountain", "size": 2, "name_fr": null }, "geometry": { "type": "MultiPolygon", "coordinates": [ [ [ [ 32.469454249253289, 9.417884876459443 ], [ 32.855661145805009, 9.439953841976685 ], [ 33.164626663046384, 9.175126255769788 ], [ 33.120488732011907, 8.67857453163186 ], [ 33.429454249253283, 8.248229704045654 ], [ 33.153592180287767, 7.773746945424966 ], [ 32.833592180287766, 7.66340211783876 ], [ 32.568764594080875, 7.906160738528413 ], [ 32.182557697529148, 8.435815910942205 ], [ 31.421178387184323, 8.777884876459446 ], [ 31.597730111322257, 9.042712462666341 ], [ 32.193592180287773, 9.119953841976685 ], [ 32.469454249253289, 9.417884876459443 ] ] ] ] } },
{ "type": "Feature", "properties": { "id": 25, "type": "mountain", "size": 4, "name_fr": null }, "geometry": { "type": "MultiPolygon", "coordinates": [ [ [ [ 33.694281835460188, 6.857884876459446 ], [ 34.841868042356722, 5.975126255769792 ], [ 37.313592180287749, 3.459264186804284 ], [ 38.770143904425673, 1.605471083356015 ], [ 39.343937007873954, 0.193057290252571 ], [ 39.652902525115337, -2.455218571816384 ], [ 40.712212869942917, -3.779356502850862 ], [ 40.160488732011885, -6.913149606299125 ], [ 38.94669562856361, -6.913149606299125 ], [ 38.571523214770508, -5.147632364919822 ], [ 38.814281835460164, -3.271770295954308 ], [ 37.909454249253272, -2.27866684767845 ], [ 37.291523214770514, 0.28133315232154 ], [ 35.768764594080864, 3.724091773011183 ], [ 33.914971490632595, 5.246850393700831 ], [ 33.694281835460188, 6.857884876459446 ] ] ] ] } },
{ "type": "Feature", "properties": { "id": 26, "type": "mountain", "size": 3, "name_fr": null }, "geometry": { "type": "MultiPolygon", "coordinates": [ [ [ [ 51.857040456149761, -6.184873744230162 ], [ 53.644626663046303, -6.295218571816369 ], [ 55.719109421666985, -6.935218571816366 ], [ 57.617040456149738, -6.339356502850851 ], [ 59.691523214770413, -6.560046158023264 ], [ 60.508074938908344, -7.420735813195675 ], [ 60.22117838718421, -8.656597882161186 ], [ 59.117730111322146, -10.002804778712905 ], [ 58.146695628563528, -12.364184089057725 ], [ 57.087385283735941, -11.591770295954278 ], [ 57.99221286994284, -9.958666847678423 ], [ 56.932902525115253, -10.289701330437042 ], [ 54.880488732011813, -10.598666847678421 ], [ 51.305316318218729, -9.340735813195668 ], [ 50.378419766494588, -7.729701330437052 ], [ 51.857040456149761, -6.184873744230162 ] ] ] ] } },
{ "type": "Feature", "properties": { "id": 27, "type": "mountain", "size": 2, "name_fr": null }, "geometry": { "type": "MultiPolygon", "coordinates": [ [ [ [ 47.443247352701505, -7.189011675264643 ], [ 48.182557697529084, -7.553149606299124 ], [ 48.712212869942874, -8.204184089057742 ], [ 48.083247352701498, -8.480046158023258 ], [ 47.410143904425638, -8.314528916643949 ], [ 46.61566114580495, -8.16004615802326 ], [ 47.377040456149778, -7.784873744230158 ], [ 47.443247352701505, -7.189011675264643 ] ] ] ] } },
{ "type": "Feature", "properties": { "id": 28, "type": "mountain", "size": 2, "name_fr": null }, "geometry": { "type": "MultiPolygon", "coordinates": [ [ [ [ 55.354971490632501, -12.617977192505998 ], [ 55.59773011132215, -13.191770295954273 ], [ 55.851523214770424, -14.206942709747372 ], [ 55.487385283735946, -15.696597882161159 ], [ 54.836350800977328, -15.586253054574954 ], [ 54.18531631821871, -14.560046158023233 ], [ 54.681868042356641, -13.390390985609445 ], [ 55.354971490632501, -12.617977192505998 ] ] ] ] } },
{ "type": "Feature", "properties": { "id": 29, "type": "mountain", "size": 2, "name_fr": null }, "geometry": { "type": "MultiPolygon", "coordinates": [ [ [ [ 58.499154902367465, -15.796322583633099 ], [ 58.863937007873865, -16.071770295954263 ], [ 59.00623639793492, -16.349900921982684 ], [ 58.974644469586693, -16.399043921635482 ], [ 59.040056087664475, -16.436421989108496 ], [ 59.035383829230341, -16.555564579178736 ], [ 59.033010196844444, -16.587015208291884 ], [ 58.588074938908349, -16.833149606299088 ], [ 57.892902525115247, -16.3586668476784 ], [ 57.588404279384015, -16.398384010165081 ], [ 57.582311456216857, -16.394371663201341 ], [ 57.567651241896307, -16.40109092809826 ], [ 57.385316318218699, -16.424873744230123 ], [ 57.431653867132994, -16.52631540536682 ], [ 57.418782411022413, -16.553228449961665 ], [ 57.460832736929561, -16.651345877078327 ], [ 57.460832736929561, -16.763480079497384 ], [ 57.516899838139082, -16.819547180706905 ], [ 57.586983714650991, -16.880286540350554 ], [ 57.595344998464164, -16.884666260443169 ], [ 57.793592180287661, -17.318666847678394 ], [ 58.047362086749992, -17.504764779084102 ], [ 58.105604400839084, -17.585797563903711 ], [ 58.245772153862895, -17.697931766322753 ], [ 58.367250873150191, -17.777360159702909 ], [ 58.447762941946507, -17.890077056017756 ], [ 58.417987009157372, -18.213890325099609 ], [ 58.362578614716071, -18.267947295286248 ], [ 58.381267648452578, -18.454837632651319 ], [ 58.38923623915008, -18.526554948928887 ], [ 58.375644552254357, -18.674364543919857 ], [ 58.315856030374796, -18.800584756776715 ], [ 58.255116670731148, -18.959441543537039 ], [ 58.292494738204162, -19.207071240545773 ], [ 58.259788929165268, -19.328549959833069 ], [ 58.264461187599402, -19.478062229725126 ], [ 58.259788929165268, -19.669624825524338 ], [ 58.234992337119465, -19.716356864379911 ], [ 57.594971490632489, -19.602804778712866 ], [ 57.639109421666973, -18.598666847678388 ], [ 57.352212869942839, -17.252459951126671 ], [ 56.657040456149737, -16.744873744230119 ], [ 56.281868042356635, -15.939356502850814 ], [ 57.032804613006057, -15.576000097697868 ], [ 57.110413354370039, -15.651482572175169 ], [ 57.264597882696229, -15.69353289808231 ], [ 57.414110152588293, -15.581398695663253 ], [ 57.530916613441462, -15.515987077585478 ], [ 57.603373891211398, -15.507000203126589 ], [ 58.10819764540831, -15.616744497517221 ], [ 58.185032794219239, -15.70754967338469 ], [ 58.283150221335902, -15.763616774594212 ], [ 58.371923131584317, -15.796322583633099 ], [ 58.499154902367465, -15.796322583633099 ] ] ] ] } },
{ "type": "Feature", "properties": { "id": 30, "type": "mountain", "size": 2, "name_fr": null }, "geometry": { "type": "MultiPolygon", "coordinates": [ [ [ [ 52.861178387184246, -16.546253054574954 ], [ 53.688764594080794, -17.064873744230127 ], [ 53.920488732011826, -16.568322020092197 ], [ 54.968764594080788, -17.561425468368054 ], [ 54.119109421666998, -17.48418408905771 ], [ 54.836350800977335, -18.124184089057707 ], [ 54.20738528373596, -18.289701330437016 ], [ 53.523247352701482, -17.804184089057706 ], [ 52.662557697529074, -16.82211512354047 ], [ 52.861178387184246, -16.546253054574954 ] ] ] ] } },
{ "type": "Feature", "properties": { "id": 31, "type": "mountain", "size": 2, "name_fr": null }, "geometry": { "type": "MultiPolygon", "coordinates": [ [ [ [ 61.258419766494555, -9.693839261471533 ], [ 61.655661145804899, -10.433149606299116 ], [ 60.828074938908351, -11.139356502850838 ], [ 60.79187236612804, -11.392774512313023 ], [ 60.745430416120826, -11.437105464592641 ], [ 60.752759095766308, -11.607497266350345 ], [ 60.397730111322147, -11.790390985609456 ], [ 60.205679589764635, -11.994199702364366 ], [ 60.184759404025591, -12.007120993556128 ], [ 60.173100265819592, -12.02877367879584 ], [ 59.712162029517273, -12.517932623443201 ], [ 59.586710324457336, -12.577136522519623 ], [ 59.540661626045818, -12.699933051616989 ], [ 59.316350800977325, -12.937977192506002 ], [ 58.863937007873879, -13.015218571816348 ], [ 58.819799076839395, -12.320046158023246 ], [ 59.503937007873873, -11.150390985609459 ], [ 60.541178387184218, -10.057977192506014 ], [ 61.258419766494555, -9.693839261471533 ] ] ] ] } },
{ "type": "Feature", "properties": { "id": 32, "type": "mountain", "size": 4, "name_fr": null }, "geometry": { "type": "MultiPolygon", "coordinates": [ [ [ [ 62.406005973391082, -14.758666847678413 ], [ 63.983842325760179, -15.039651403579757 ], [ 64.114128747126344, -15.118845110684674 ], [ 64.19759219848001, -15.133018149593786 ], [ 65.429454249253155, -15.729701330437031 ], [ 66.841868042356595, -15.817977192505996 ], [ 66.930143904425563, -13.853839261471522 ], [ 67.128764594080735, -12.353149606299116 ], [ 67.702557697529002, -11.139356502850845 ], [ 68.850143904425551, -11.646942709747394 ], [ 69.799109421666927, -11.139356502850845 ], [ 68.695661145804863, -9.793149606299128 ], [ 67.945316318218659, -7.630390985609481 ], [ 69.512212869942786, -7.586253054574999 ], [ 70.637730111322099, -7.564184089057758 ], [ 71.012902525115194, -8.711770295954304 ], [ 72.226695628563448, -10.543494433885328 ], [ 71.630833559597932, -12.507632364919804 ], [ 70.792212869942773, -14.030390985609451 ], [ 71.807385283735869, -16.149011675264614 ], [ 72.690143904425526, -18.664873744230121 ], [ 72.888764594080698, -21.90901167526459 ], [ 71.388074938908289, -22.129701330437001 ], [ 69.909454249253116, -22.063494433885278 ], [ 68.364626663046224, -20.827632364919765 ], [ 67.327385283735893, -19.238666847678395 ], [ 65.583937007873828, -17.892459951126675 ], [ 63.73014390442556, -16.899356502850818 ], [ 62.781178387184184, -15.707632364919789 ], [ 62.406005973391082, -14.758666847678413 ] ] ] ] } },
{ "type": "Feature", "properties": { "id": 33, "type": "mountain", "size": 3, "name_fr": null }, "geometry": { "type": "MultiPolygon", "coordinates": [ [ [ [ 79.332902525115145, -9.351770295954305 ], [ 78.097040456149628, -8.248322020092241 ], [ 78.847385283735832, -6.438666847678456 ], [ 82.687385283735821, -6.571080640781903 ], [ 88.028074938908205, -8.469011675264653 ], [ 91.691523214770257, -11.426253054574985 ], [ 91.905964443133257, -14.232636086629846 ], [ 91.898265596390161, -25.071072532475657 ], [ 90.720488732011646, -25.594528916643888 ], [ 90.543937007873723, -21.136597882161148 ], [ 86.527385283735811, -16.766942709747376 ], [ 82.863937007873744, -11.955908226988775 ], [ 79.332902525115145, -9.351770295954305 ] ] ] ] } },
{ "type": "Feature", "properties": { "id": 34, "type": "mountain", "size": 3, "name_fr": null }, "geometry": { "type": "MultiPolygon", "coordinates": [ [ [ [ 91.912531109790564, -4.988082765686626 ], [ 87.321868042356485, -2.995908226988819 ], [ 84.717730111322012, -1.715908226988823 ], [ 84.055661145804777, -0.038666847678487 ], [ 82.599109421666853, 0.402712462666338 ], [ 82.42255769752893, 1.815126255769782 ], [ 81.319109421666866, 1.903402117838747 ], [ 79.950833559597896, 2.786160738528398 ], [ 78.474836045704919, 4.792003513818861 ], [ 78.510817063432043, 4.914338974091059 ], [ 78.482783512827268, 5.185329963270433 ], [ 78.51795994621996, 5.413976780322855 ], [ 78.700811246471375, 5.596828080574267 ], [ 78.837875153820931, 5.680589357287879 ], [ 78.996731940581242, 5.689933874156139 ], [ 79.056070207412006, 5.725536834254601 ], [ 81.937040456149617, 4.639953841976665 ], [ 84.585316318218574, 2.035815910942194 ], [ 87.98393700787372, -0.082804778712969 ], [ 91.914424363681022, -2.322759938474118 ], [ 91.912531109790564, -4.988082765686626 ] ] ], [ [ [ 78.291794644672862, 5.040752084452173 ], [ 78.229454249253081, 5.125471083355973 ], [ 78.369194325895805, 5.265211159998702 ], [ 78.291794644672862, 5.040752084452173 ] ] ] ] } },
{ "type": "Feature", "properties": { "id": 35, "type": "mountain", "size": 1, "name_fr": "Mère des Montagnes" }, "geometry": { "type": "MultiPolygon", "coordinates": [ [ [ [ 64.866695628563491, -1.031770295954354 ], [ 64.80600597339108, -0.882804778712975 ], [ 65.010143904425561, -0.662115123540562 ], [ 65.517730111322109, -0.700735813195735 ], [ 65.743937007873839, -1.097977192506078 ], [ 65.688764594080737, -1.48970133043711 ], [ 65.412902525115214, -1.561425468368145 ], [ 65.2418680423566, -1.357287537333663 ], [ 64.866695628563491, -1.031770295954354 ] ] ] ] } },
{ "type": "Feature", "properties": { "id": 42, "type": "swamp", "size": 3, "name_fr": null }, "geometry": { "type": "MultiPolygon", "coordinates": [ [ [ [ 13.015661145805009, 20.733746945424826 ], [ 14.185316318218799, 21.064781428183444 ], [ 15.686005973391206, 18.195815910942077 ], [ 14.781178387184312, 16.915815910942083 ], [ 15.686005973391206, 15.459264186804159 ], [ 14.097040456149832, 14.399953841976577 ], [ 12.486005973391219, 14.532367635080025 ], [ 12.287385283736047, 16.408229704045532 ], [ 11.890143904425704, 17.953057290252424 ], [ 12.706695628563633, 19.674436600597243 ], [ 13.015661145805009, 20.733746945424826 ] ] ] ] } },
{ "type": "Feature", "properties": { "id": 43, "type": "stepp", "size": 5, "name_fr": "La Mer Dothrak" }, "geometry": { "type": "MultiPolygon", "coordinates": [ [ [ [ 56.932902525115168, 4.799953841976604 ], [ 59.978419766494454, 3.961333152321435 ], [ 63.244626663046169, 3.431677979907645 ], [ 66.687385283735807, 3.961333152321435 ], [ 72.337040456149566, 3.652367635080058 ], [ 72.73428183545991, 3.034436600597303 ], [ 74.058419766494396, 3.431677979907645 ], [ 75.735661145804727, 3.122712462666268 ], [ 76.22117838718404, 2.195815910942134 ], [ 77.059799076839212, 2.151677979907651 ], [ 78.383937007873698, 0.783402117838692 ], [ 77.766005973390932, -0.982115123540611 ], [ 78.648764594080575, -1.864873744230263 ], [ 77.986695628563353, -3.189011675264739 ], [ 77.148074938908167, -6.013839261471622 ], [ 75.206005973390944, -6.013839261471622 ], [ 72.73428183545991, -7.16142546836817 ], [ 70.836350800977172, -5.395908226988867 ], [ 65.230833559597883, -5.131080640781972 ], [ 60.861178387184111, -6.80832202009231 ], [ 59.183937007873773, -6.057977192506106 ], [ 56.006005973391026, -6.675908226988861 ], [ 51.724626663046223, -5.704873744230246 ], [ 49.826695628563471, -7.205563399402651 ], [ 48.679109421666922, -6.190390985609552 ], [ 49.959109421666916, -3.851080640781978 ], [ 46.25152321477038, -0.143494433885442 ], [ 47.619799076839342, 2.239953841976616 ], [ 50.436182358985008, 2.348809114289885 ], [ 52.386695628563459, 0.342022807493866 ], [ 56.844626663046199, 2.637195221286959 ], [ 56.932902525115168, 4.799953841976604 ] ] ] ] } }
]
}
